<?xml version="1.0" encoding="UTF-8"?>
<kml xmlns="http://www.opengis.net/kml/2.2"><Document><name>AMAKENG clip 004 GPS track</name>
<Placemark><name>track_004</name><Style><LineStyle><color>ffff9900</color><width>3</width></LineStyle></Style>
<LineString><tessellate>1</tessellate><altitudeMode>clampToGround</altitudeMode><coordinates>103.7155928,1.4064823,0 103.7155929,1.4064823,0 103.7155930,1.4064823,0 103.7155941,1.4064824,0 103.7155986,1.4064828,0 103.7156113,1.4064835,0 103.7156389,1.4064848,0 103.7156876,1.4064867,0 103.7157599,1.4064884,0 103.7158525,1.4064891,0 103.7159566,1.4064877,0 103.7160632,1.4064833,0 103.7161647,1.4064774,0 103.7162585,1.4064714,0 103.7163443,1.4064663,0 103.7164228,1.4064637,0 103.7164950,1.4064631,0 103.7165626,1.4064636,0 103.7166274,1.4064642,0 103.7166906,1.4064629,0 103.7167534,1.4064595,0 103.7168165,1.4064534,0 103.7168805,1.4064463,0 103.7169400,1.4064368,0 103.7170002,1.4064253,0 103.7170598,1.4064118,0 103.7171200,1.4063958,0 103.7171831,1.4063787,0 103.7172497,1.4063600,0 103.7173209,1.4063389,0 103.7173969,1.4063152,0 103.7174742,1.4062901,0 103.7175501,1.4062645,0 103.7176228,1.4062404,0 103.7176896,1.4062184,0 103.7177480,1.4061983,0 103.7177965,1.4061811,0 103.7178330,1.4061676,0 103.7178588,1.4061574,0 103.7178760,1.4061485,0 103.7178877,1.4061415,0 103.7178963,1.4061365,0 103.7179043,1.4061328,0 103.7179136,1.4061302,0 103.7179248,1.4061290,0 103.7179393,1.4061274,0 103.7179580,1.4061252,0 103.7179806,1.4061222,0 103.7180073,1.4061178,0 103.7180386,1.4061112,0 103.7180747,1.4061030,0 103.7181156,1.4060927,0 103.7181612,1.4060812,0 103.7182115,1.4060680,0 103.7182668,1.4060529,0 103.7183257,1.4060363,0 103.7183876,1.4060188,0 103.7184506,1.4060005,0 103.7185137,1.4059827,0 103.7185772,1.4059656,0 103.7186406,1.4059486,0 103.7187045,1.4059316,0 103.7187689,1.4059143,0 103.7188336,1.4058976,0 103.7188979,1.4058812,0 103.7189633,1.4058653,0 103.7190277,1.4058496,0 103.7190913,1.4058340,0 103.7191544,1.4058176,0 103.7192168,1.4058004,0 103.7192753,1.4057841,0 103.7193262,1.4057693,0 103.7193664,1.4057575,0 103.7193963,1.4057484,0 103.7194184,1.4057413,0 103.7194359,1.4057353,0 103.7194513,1.4057299,0 103.7194663,1.4057247,0 103.7194826,1.4057194,0 103.7195016,1.4057133,0 103.7195242,1.4057061,0 103.7195513,1.4056978,0 103.7195826,1.4056875,0 103.7196179,1.4056762,0 103.7196567,1.4056635,0 103.7196986,1.4056499,0 103.7197430,1.4056351,0 103.7197895,1.4056199,0 103.7198368,1.4056041,0 103.7198845,1.4055876,0 103.7199331,1.4055715,0 103.7199823,1.4055553,0 103.7200312,1.4055392,0 103.7200805,1.4055218,0 103.7201321,1.4055031,0 103.7201855,1.4054828,0 103.7202394,1.4054614,0 103.7202940,1.4054397,0 103.7203495,1.4054168,0 103.7204064,1.4053917,0 103.7204602,1.4053650,0 103.7205126,1.4053331,0 103.7205615,1.4052953,0 103.7206066,1.4052525,0 103.7206500,1.4052063,0 103.7206932,1.4051568,0 103.7207367,1.4051045,0 103.7207813,1.4050497,0 103.7208267,1.4049929,0 103.7208722,1.4049348,0 103.7209171,1.4048774,0 103.7209614,1.4048213,0 103.7210052,1.4047684,0 103.7210496,1.4047201,0 103.7210966,1.4046771,0 103.7211465,1.4046407,0 103.7212003,1.4046134,0 103.7212567,1.4045941,0 103.7213153,1.4045816,0 103.7213757,1.4045740,0 103.7214382,1.4045707,0 103.7215016,1.4045711,0 103.7215648,1.4045743,0 103.7216274,1.4045794,0 103.7216895,1.4045859,0 103.7217503,1.4045924,0 103.7218093,1.4045984,0 103.7218661,1.4046040,0 103.7219211,1.4046088,0 103.7219754,1.4046136,0 103.7220305,1.4046187,0 103.7220860,1.4046248,0 103.7221418,1.4046322,0 103.7221979,1.4046416,0 103.7222545,1.4046531,0 103.7223092,1.4046645,0 103.7223601,1.4046785,0 103.7224106,1.4046909,0 103.7224585,1.4047057,0 103.7225060,1.4047204,0 103.7225521,1.4047358,0 103.7225981,1.4047529,0 103.7226436,1.4047708,0 103.7226903,1.4047902,0 103.7227408,1.4048116,0 103.7227951,1.4048348,0 103.7228509,1.4048589,0 103.7229075,1.4048832,0 103.7229633,1.4049090,0 103.7230194,1.4049347,0 103.7230767,1.4049605,0 103.7231344,1.4049867,0 103.7231921,1.4050127,0 103.7232488,1.4050392,0 103.7233042,1.4050658,0 103.7233593,1.4050913,0 103.7234150,1.4051161,0 103.7234710,1.4051399,0 103.7235255,1.4051626,0 103.7235780,1.4051848,0 103.7236296,1.4052065,0 103.7236803,1.4052274,0 103.7237304,1.4052462,0 103.7237790,1.4052642,0 103.7238243,1.4052810,0 103.7238683,1.4052959,0 103.7239086,1.4053128,0 103.7239454,1.4053338,0 103.7239799,1.4053564,0 103.7240093,1.4053854,0 103.7240342,1.4054220,0 103.7240566,1.4054628,0 103.7240776,1.4055090,0 103.7240954,1.4055593,0 103.7241107,1.4056140,0 103.7241247,1.4056723,0 103.7241371,1.4057337,0 103.7241488,1.4057972,0 103.7241599,1.4058623,0 103.7241714,1.4059282,0 103.7241836,1.4059946,0 103.7241967,1.4060614,0 103.7242103,1.4061280,0 103.7242251,1.4061918,0 103.7242391,1.4062522,0 103.7242532,1.4063070,0 103.7242671,1.4063575,0 103.7242798,1.4064053,0 103.7242922,1.4064505,0 103.7243049,1.4064931,0 103.7243189,1.4065325,0 103.7243333,1.4065676,0 103.7243461,1.4065970,0 103.7243578,1.4066193,0 103.7243631,1.4066338,0 103.7243674,1.4066386,0 103.7243723,1.4066408,0 103.7243769,1.4066440,0 103.7243821,1.4066505,0 103.7243887,1.4066622,0 103.7243973,1.4066798,0 103.7244081,1.4067030,0 103.7244202,1.4067329,0 103.7244346,1.4067684,0 103.7244508,1.4068090,0 103.7244691,1.4068539,0 103.7244900,1.4069023,0 103.7245116,1.4069506,0 103.7245352,1.4070035,0 103.7245595,1.4070584,0 103.7245839,1.4071146,0 103.7246087,1.4071724,0 103.7246338,1.4072312,0 103.7246592,1.4072907,0 103.7246848,1.4073507,0 103.7247102,1.4074104,0 103.7247358,1.4074699,0 103.7247615,1.4075290,0 103.7247866,1.4075883,0 103.7248106,1.4076480,0 103.7248344,1.4077081,0 103.7248576,1.4077684,0 103.7248816,1.4078287,0 103.7249052,1.4078890,0 103.7249286,1.4079493,0 103.7249505,1.4080092,0 103.7249695,1.4080692,0 103.7249857,1.4081285,0 103.7249975,1.4081869,0 103.7250041,1.4082435,0 103.7250042,1.4082978,0 103.7249980,1.4083507,0 103.7249824,1.4083977,0 103.7249515,1.4084362,0 103.7249100,1.4084627,0 103.7248610,1.4084763,0 103.7248085,1.4084784,0 103.7247511,1.4084691,0 103.7246922,1.4084478,0 103.7246341,1.4084156,0 103.7245791,1.4083738,0 103.7245282,1.4083244,0 103.7244816,1.4082692,0 103.7244376,1.4082106,0 103.7243940,1.4081501,0 103.7243565,1.4080885,0 103.7243224,1.4080276,0 103.7242917,1.4079681,0 103.7242639,1.4079102,0 103.7242383,1.4078531,0 103.7242151,1.4077979,0 103.7241941,1.4077447,0 103.7241721,1.4077010,0 103.7241484,1.4076663,0 103.7241228,1.4076410,0 103.7240951,1.4076271,0 103.7240683,1.4076225,0 103.7240395,1.4076241,0 103.7240127,1.4076308,0 103.7239849,1.4076413,0 103.7239566,1.4076563,0 103.7239265,1.4076738,0 103.7238952,1.4076938,0 103.7238613,1.4077171,0 103.7238257,1.4077414,0 103.7237900,1.4077657,0 103.7237550,1.4077895,0 103.7237188,1.4078123,0 103.7236832,1.4078325,0 103.7236476,1.4078483,0 103.7236147,1.4078590,0 103.7235884,1.4078651,0 103.7235677,1.4078682,0 103.7235517,1.4078689,0 103.7235374,1.4078659,0 103.7235267,1.4078604,0 103.7235193,1.4078529,0 103.7235145,1.4078436,0 103.7235115,1.4078321,0 103.7235094,1.4078178,0 103.7235089,1.4078033,0 103.7235087,1.4077895,0 103.7235084,1.4077741,0 103.7235077,1.4077578,0 103.7235061,1.4077400,0 103.7235034,1.4077203,0 103.7234997,1.4076988,0 103.7234951,1.4076760,0 103.7234900,1.4076524,0 103.7234841,1.4076274,0 103.7234775,1.4076010,0 103.7234704,1.4075736,0 103.7234627,1.4075453,0 103.7234546,1.4075160,0 103.7234458,1.4074853,0 103.7234362,1.4074529,0 103.7234256,1.4074187,0 103.7234140,1.4073829,0 103.7234018,1.4073456,0 103.7233905,1.4073063,0 103.7233829,1.4072647,0 103.7233818,1.4072215,0 103.7233886,1.4071780,0 103.7234088,1.4071366,0 103.7234341,1.4070954,0 103.7234621,1.4070567,0 103.7234910,1.4070226,0 103.7235190,1.4069939,0 103.7235455,1.4069699,0 103.7235718,1.4069487,0 103.7235985,1.4069288,0 103.7236264,1.4069093,0 103.7236559,1.4068896,0 103.7236865,1.4068697,0 103.7237176,1.4068493,0 103.7237485,1.4068290,0 103.7237777,1.4068088,0 103.7238043,1.4067885,0 103.7238275,1.4067677,0 103.7238455,1.4067460,0 103.7238567,1.4067231,0 103.7238605,1.4066994,0 103.7238571,1.4066758,0 103.7238468,1.4066523,0 103.7238300,1.4066293,0 103.7238071,1.4066072,0 103.7237782,1.4065865,0 103.7237438,1.4065686,0 103.7237049,1.4065553,0 103.7236627,1.4065482,0 103.7236172,1.4065477,0 103.7235664,1.4065571,0 103.7235120,1.4065702,0 103.7234546,1.4065861,0 103.7233955,1.4066041,0 103.7233355,1.4066236,0 103.7232736,1.4066445,0 103.7232105,1.4066660,0 103.7231464,1.4066879,0 103.7230820,1.4067094,0 103.7230180,1.4067310,0 103.7229542,1.4067519,0 103.7228911,1.4067728,0 103.7228284,1.4067940,0 103.7227666,1.4068156,0 103.7227063,1.4068372,0 103.7226480,1.4068587,0 103.7225916,1.4068796,0 103.7225368,1.4069002,0 103.7224833,1.4069205,0 103.7224306,1.4069416,0 103.7223781,1.4069628,0 103.7223255,1.4069845,0 103.7222727,1.4070061,0 103.7222194,1.4070275,0 103.7221657,1.4070486,0 103.7221123,1.4070690,0 103.7220605,1.4070891,0 103.7220113,1.4071083,0 103.7219665,1.4071252,0 103.7219259,1.4071402,0 103.7218892,1.4071536,0 103.7218561,1.4071660,0 103.7218253,1.4071780,0 103.7217961,1.4071903,0 103.7217680,1.4072030,0 103.7217405,1.4072166,0 103.7217127,1.4072294,0 103.7216817,1.4072431,0 103.7216464,1.4072587,0 103.7216087,1.4072772,0 103.7215695,1.4072925,0 103.7215276,1.4073118,0 103.7214833,1.4073300,0 103.7214410,1.4073501,0 103.7214022,1.4073683,0 103.7213636,1.4073893,0 103.7213256,1.4074141,0 103.7212896,1.4074432,0 103.7212599,1.4074770,0 103.7212376,1.4075166,0 103.7212238,1.4075622,0 103.7212157,1.4076139,0 103.7212108,1.4076721,0 103.7212082,1.4077360,0 103.7212057,1.4078061,0 103.7212028,1.4078807,0 103.7211986,1.4079598,0 103.7211927,1.4080413,0 103.7211855,1.4081240,0 103.7211773,1.4082055,0 103.7211683,1.4082838,0 103.7211590,1.4083571,0 103.7211494,1.4084240,0 103.7211400,1.4084842,0 103.7211293,1.4085372,0 103.7211169,1.4085822,0 103.7210995,1.4086186,0 103.7210776,1.4086462,0 103.7210517,1.4086641,0 103.7210232,1.4086724,0 103.7209935,1.4086717,0 103.7209624,1.4086641,0 103.7209282,1.4086502,0 103.7208899,1.4086309,0 103.7208466,1.4086075,0 103.7207995,1.4085814,0 103.7207491,1.4085533,0 103.7206947,1.4085244,0 103.7206371,1.4084957,0 103.7205767,1.4084679,0 103.7205158,1.4084414,0 103.7204555,1.4084166,0 103.7203963,1.4083938,0 103.7203390,1.4083728,0 103.7202837,1.4083538,0 103.7202311,1.4083367,0 103.7201818,1.4083207,0 103.7201350,1.4083060,0 103.7200895,1.4082924,0 103.7200457,1.4082802,0 103.7200051,1.4082691,0 103.7199668,1.4082595,0 103.7199303,1.4082506,0 103.7198964,1.4082418,0 103.7198640,1.4082330,0 103.7198321,1.4082243,0 103.7197993,1.4082160,0 103.7197644,1.4082074,0 103.7197260,1.4081984,0 103.7196830,1.4081897,0 103.7196364,1.4081807,0 103.7195879,1.4081707,0 103.7195372,1.4081594,0 103.7194837,1.4081462,0 103.7194284,1.4081307,0 103.7193727,1.4081127,0 103.7193175,1.4080917,0 103.7192641,1.4080652,0 103.7192120,1.4080330,0 103.7191630,1.4079966,0 103.7191166,1.4079549,0 103.7190723,1.4079088,0 103.7190298,1.4078583,0 103.7189884,1.4078048,0 103.7189481,1.4077488,0 103.7189079,1.4076908,0 103.7188678,1.4076317,0 103.7188285,1.4075717,0 103.7187902,1.4075117,0 103.7187529,1.4074521,0 103.7187160,1.4073936,0 103.7186792,1.4073359,0 103.7186425,1.4072792,0 103.7186055,1.4072234,0 103.7185679,1.4071686,0 103.7185308,1.4071144,0 103.7184931,1.4070606,0 103.7184552,1.4070075,0 103.7184174,1.4069549,0 103.7183798,1.4069031,0 103.7183426,1.4068526,0 103.7183059,1.4068033,0 103.7182705,1.4067554,0 103.7182366,1.4067100,0 103.7182043,1.4066681,0 103.7181733,1.4066309,0 103.7181428,1.4066005,0 103.7181115,1.4065779,0 103.7180800,1.4065664,0 103.7180451,1.4065661,0 103.7180104,1.4065757,0 103.7179740,1.4065937,0 103.7179343,1.4066184,0 103.7178935,1.4066461,0 103.7178481,1.4066769,0 103.7177989,1.4067079,0 103.7177449,1.4067394,0 103.7176871,1.4067695,0 103.7176266,1.4067977,0 103.7175633,1.4068236,0 103.7174979,1.4068468,0 103.7174323,1.4068672,0 103.7173668,1.4068843,0 103.7173029,1.4068972,0 103.7172389,1.4069059,0 103.7171767,1.4069106,0 103.7171156,1.4069121,0 103.7170558,1.4069119,0 103.7169985,1.4069095,0 103.7169449,1.4069058,0 103.7168918,1.4069052,0 103.7168371,1.4069071,0 103.7167809,1.4069171,0 103.7167266,1.4069297,0 103.7166723,1.4069454,0 103.7166137,1.4069618,0 103.7165556,1.4069785,0 103.7164983,1.4069978,0 103.7164435,1.4070187,0 103.7163893,1.4070422,0 103.7163368,1.4070665,0 103.7162848,1.4070899,0 103.7162321,1.4071144,0 103.7161798,1.4071410,0 103.7161288,1.4071713,0 103.7160792,1.4072036,0 103.7160303,1.4072387,0 103.7159821,1.4072758,0 103.7159352,1.4073145,0 103.7158899,1.4073536,0 103.7158445,1.4073930,0 103.7157996,1.4074332,0 103.7157554,1.4074742,0 103.7157112,1.4075151,0 103.7156672,1.4075561,0 103.7156229,1.4075970,0 103.7155778,1.4076385,0 103.7155314,1.4076805,0 103.7154842,1.4077232,0 103.7154373,1.4077655,0 103.7153926,1.4078066,0 103.7153527,1.4078461,0 103.7153203,1.4078825,0 103.7152937,1.4079150,0 103.7152706,1.4079443,0 103.7152476,1.4079720,0 103.7152236,1.4079970,0 103.7151990,1.4080205,0 103.7151751,1.4080426,0 103.7151541,1.4080620,0 103.7151385,1.4080762,0</coordinates></LineString></Placemark>
</Document></kml>