<?xml version="1.0" encoding="UTF-8"?>
<gpx creator="Insta360 Studio" version="1.1" xmlns="http://www.topografix.com/GPX/1/1">
  <metadata>
    <link href="https://www.insta360.com">
      <text>Insta360 GPS Dashboard</text>
    </link>
    <time>2026-08-21T04:22:01Z</time>
    <bounds maxlat="1.4086723587521106" maxlon="103.72500418726578" minlat="1.4045707495514799" minlon="103.71513849179138"/>
  </metadata>
  <trk>
    <name>Insta360 GPS Data</name>
    <trkseg>
      <trkpt lat="1.4064823" lon="103.71559284999999">
        <ele>29.6774</ele>
        <time>2026-07-24T07:24:12Z</time>
      </trkpt>
      <trkpt lat="1.4064823001994951" lon="103.71559285253943">
        <ele>29.6774</ele>
        <time>2026-07-24T07:24:13Z</time>
      </trkpt>
      <trkpt lat="1.4064823116650274" lon="103.71559297456122">
        <ele>29.6759</ele>
        <time>2026-07-24T07:24:14Z</time>
      </trkpt>
      <trkpt lat="1.4064824155889357" lon="103.71559406170695">
        <ele>29.6636</ele>
        <time>2026-07-24T07:24:15Z</time>
      </trkpt>
      <trkpt lat="1.4064827542161442" lon="103.71559863416184">
        <ele>29.6299</ele>
        <time>2026-07-24T07:24:16Z</time>
      </trkpt>
      <trkpt lat="1.406483512426842" lon="103.71561134252624">
        <ele>29.5433</ele>
        <time>2026-07-24T07:24:17Z</time>
      </trkpt>
      <trkpt lat="1.4064848403474453" lon="103.7156388573583">
        <ele>29.3501</ele>
        <time>2026-07-24T07:24:18Z</time>
      </trkpt>
      <trkpt lat="1.4064866787072579" lon="103.71568755528986">
        <ele>29.0016</ele>
        <time>2026-07-24T07:24:19Z</time>
      </trkpt>
      <trkpt lat="1.406488396329326" lon="103.71575994794421">
        <ele>28.489</ele>
        <time>2026-07-24T07:24:20Z</time>
      </trkpt>
      <trkpt lat="1.4064891004814706" lon="103.71585246266876">
        <ele>27.8441</ele>
        <time>2026-07-24T07:24:21Z</time>
      </trkpt>
      <trkpt lat="1.4064876819240431" lon="103.71595660697599">
        <ele>27.1992</ele>
        <time>2026-07-24T07:24:22Z</time>
      </trkpt>
      <trkpt lat="1.4064833344059042" lon="103.71606321266879">
        <ele>26.6161</ele>
        <time>2026-07-24T07:24:23Z</time>
      </trkpt>
      <trkpt lat="1.4064773733735674" lon="103.71616466451938">
        <ele>26.2002</ele>
        <time>2026-07-24T07:24:24Z</time>
      </trkpt>
      <trkpt lat="1.4064714304820987" lon="103.71625848661397">
        <ele>25.8855</ele>
        <time>2026-07-24T07:24:25Z</time>
      </trkpt>
      <trkpt lat="1.4064662841450941" lon="103.71634430736641">
        <ele>25.6102</ele>
        <time>2026-07-24T07:24:26Z</time>
      </trkpt>
      <trkpt lat="1.4064637122593286" lon="103.71642284431093">
        <ele>25.3497</ele>
        <time>2026-07-24T07:24:27Z</time>
      </trkpt>
      <trkpt lat="1.4064631338878739" lon="103.71649504301413">
        <ele>25.1023</ele>
        <time>2026-07-24T07:24:28Z</time>
      </trkpt>
      <trkpt lat="1.4064635604377367" lon="103.71656256115736">
        <ele>24.9984</ele>
        <time>2026-07-24T07:24:29Z</time>
      </trkpt>
      <trkpt lat="1.4064641566662874" lon="103.71662744211851">
        <ele>24.9782</ele>
        <time>2026-07-24T07:24:30Z</time>
      </trkpt>
      <trkpt lat="1.406462877348972" lon="103.71669057837093">
        <ele>25.1978</ele>
        <time>2026-07-24T07:24:31Z</time>
      </trkpt>
      <trkpt lat="1.4064595346372699" lon="103.71675339172886">
        <ele>25.5491</ele>
        <time>2026-07-24T07:24:32Z</time>
      </trkpt>
      <trkpt lat="1.4064533936899928" lon="103.71681653813026">
        <ele>25.9733</ele>
        <time>2026-07-24T07:24:33Z</time>
      </trkpt>
      <trkpt lat="1.4064462547140191" lon="103.71688052935421">
        <ele>26.6262</ele>
        <time>2026-07-24T07:24:34Z</time>
      </trkpt>
      <trkpt lat="1.4064368167724983" lon="103.71694001386479">
        <ele>27.8419</ele>
        <time>2026-07-24T07:24:35Z</time>
      </trkpt>
      <trkpt lat="1.4064253236491011" lon="103.71700019746616">
        <ele>29.0239</ele>
        <time>2026-07-24T07:24:36Z</time>
      </trkpt>
      <trkpt lat="1.4064117762159687" lon="103.7170597863194">
        <ele>30.3645</ele>
        <time>2026-07-24T07:24:37Z</time>
      </trkpt>
      <trkpt lat="1.4063957855151117" lon="103.71711995468071">
        <ele>31.5214</ele>
        <time>2026-07-24T07:24:38Z</time>
      </trkpt>
      <trkpt lat="1.4063787169139337" lon="103.71718312141881">
        <ele>32.2303</ele>
        <time>2026-07-24T07:24:39Z</time>
      </trkpt>
      <trkpt lat="1.406359991993124" lon="103.71724973637357">
        <ele>32.6228</ele>
        <time>2026-07-24T07:24:40Z</time>
      </trkpt>
      <trkpt lat="1.4063389305495901" lon="103.7173208513277">
        <ele>32.6749</ele>
        <time>2026-07-24T07:24:41Z</time>
      </trkpt>
      <trkpt lat="1.4063151803143707" lon="103.71739686531649">
        <ele>32.6406</ele>
        <time>2026-07-24T07:24:42Z</time>
      </trkpt>
      <trkpt lat="1.4062901191465997" lon="103.71747419439133">
        <ele>32.4204</ele>
        <time>2026-07-24T07:24:43Z</time>
      </trkpt>
      <trkpt lat="1.4062644938926088" lon="103.71755013538696">
        <ele>32.0872</ele>
        <time>2026-07-24T07:24:44Z</time>
      </trkpt>
      <trkpt lat="1.4062404405642299" lon="103.71762282514793">
        <ele>31.6562</ele>
        <time>2026-07-24T07:24:45Z</time>
      </trkpt>
      <trkpt lat="1.4062183707705733" lon="103.71768962633732">
        <ele>31.3122</ele>
        <time>2026-07-24T07:24:46Z</time>
      </trkpt>
      <trkpt lat="1.4061982504211161" lon="103.71774799437826">
        <ele>31.0491</ele>
        <time>2026-07-24T07:24:47Z</time>
      </trkpt>
      <trkpt lat="1.4061811245135905" lon="103.717796461503">
        <ele>30.6893</ele>
        <time>2026-07-24T07:24:48Z</time>
      </trkpt>
      <trkpt lat="1.4061676281801678" lon="103.71783301939129">
        <ele>30.369</ele>
        <time>2026-07-24T07:24:49Z</time>
      </trkpt>
      <trkpt lat="1.4061573576378124" lon="103.71785876438696">
        <ele>29.8314</ele>
        <time>2026-07-24T07:24:51Z</time>
      </trkpt>
      <trkpt lat="1.4061485331066554" lon="103.71787595157186">
        <ele>29.1585</ele>
        <time>2026-07-24T07:25:05Z</time>
      </trkpt>
      <trkpt lat="1.4061415175940237" lon="103.71788773549922">
        <ele>28.6316</ele>
        <time>2026-07-24T07:25:06Z</time>
      </trkpt>
      <trkpt lat="1.4061365150149971" lon="103.71789633726803">
        <ele>28.2026</ele>
        <time>2026-07-24T07:25:07Z</time>
      </trkpt>
      <trkpt lat="1.4061327565246267" lon="103.71790431521927">
        <ele>27.8544</ele>
        <time>2026-07-24T07:25:08Z</time>
      </trkpt>
      <trkpt lat="1.4061302251459371" lon="103.71791356702667">
        <ele>27.5117</ele>
        <time>2026-07-24T07:25:09Z</time>
      </trkpt>
      <trkpt lat="1.4061289724726092" lon="103.71792477155955">
        <ele>27.2005</ele>
        <time>2026-07-24T07:25:10Z</time>
      </trkpt>
      <trkpt lat="1.4061274004117277" lon="103.71793933475644">
        <ele>27.1382</ele>
        <time>2026-07-24T07:25:11Z</time>
      </trkpt>
      <trkpt lat="1.4061252335432988" lon="103.71795795791277">
        <ele>27.2182</ele>
        <time>2026-07-24T07:25:12Z</time>
      </trkpt>
      <trkpt lat="1.4061221671657704" lon="103.71798062228966">
        <ele>27.3707</ele>
        <time>2026-07-24T07:25:13Z</time>
      </trkpt>
      <trkpt lat="1.4061178030532384" lon="103.71800732145678">
        <ele>27.6196</ele>
        <time>2026-07-24T07:25:14Z</time>
      </trkpt>
      <trkpt lat="1.4061112163624341" lon="103.71803856854437">
        <ele>27.8521</ele>
        <time>2026-07-24T07:25:15Z</time>
      </trkpt>
      <trkpt lat="1.4061029543477956" lon="103.71807467874075">
        <ele>28.0761</ele>
        <time>2026-07-24T07:25:16Z</time>
      </trkpt>
      <trkpt lat="1.4060927198025088" lon="103.7181155655506">
        <ele>28.2829</ele>
        <time>2026-07-24T07:25:17Z</time>
      </trkpt>
      <trkpt lat="1.4060812182503912" lon="103.71816124898953">
        <ele>28.5163</ele>
        <time>2026-07-24T07:25:18Z</time>
      </trkpt>
      <trkpt lat="1.4060679845882917" lon="103.71821151698795">
        <ele>28.6936</ele>
        <time>2026-07-24T07:25:19Z</time>
      </trkpt>
      <trkpt lat="1.4060529323065039" lon="103.71826676088327">
        <ele>28.8944</ele>
        <time>2026-07-24T07:25:20Z</time>
      </trkpt>
      <trkpt lat="1.4060362825536281" lon="103.71832570733687">
        <ele>29.0544</ele>
        <time>2026-07-24T07:25:21Z</time>
      </trkpt>
      <trkpt lat="1.4060187507173072" lon="103.71838759510794">
        <ele>29.0959</ele>
        <time>2026-07-24T07:25:22Z</time>
      </trkpt>
      <trkpt lat="1.4060005136249643" lon="103.71845056853827">
        <ele>29.0832</ele>
        <time>2026-07-24T07:25:23Z</time>
      </trkpt>
      <trkpt lat="1.4059826919954259" lon="103.71851372593653">
        <ele>29.0269</ele>
        <time>2026-07-24T07:25:24Z</time>
      </trkpt>
      <trkpt lat="1.4059656290025737" lon="103.7185771612793">
        <ele>28.884</ele>
        <time>2026-07-24T07:25:25Z</time>
      </trkpt>
      <trkpt lat="1.4059486278071671" lon="103.71864059349744">
        <ele>28.7652</ele>
        <time>2026-07-24T07:25:26Z</time>
      </trkpt>
      <trkpt lat="1.4059315534105628" lon="103.71870447302494">
        <ele>28.6378</ele>
        <time>2026-07-24T07:25:27Z</time>
      </trkpt>
      <trkpt lat="1.4059143026390519" lon="103.71876888133075">
        <ele>28.5061</ele>
        <time>2026-07-24T07:25:28Z</time>
      </trkpt>
      <trkpt lat="1.4058975664077664" lon="103.71883355862589">
        <ele>28.385</ele>
        <time>2026-07-24T07:25:29Z</time>
      </trkpt>
      <trkpt lat="1.4058811986224291" lon="103.71889794821578">
        <ele>28.2361</ele>
        <time>2026-07-24T07:25:30Z</time>
      </trkpt>
      <trkpt lat="1.4058653489992279" lon="103.71896325650881">
        <ele>28.0236</ele>
        <time>2026-07-24T07:25:31Z</time>
      </trkpt>
      <trkpt lat="1.4058495889612304" lon="103.71902767612023">
        <ele>27.802</ele>
        <time>2026-07-24T07:25:32Z</time>
      </trkpt>
      <trkpt lat="1.405833976284508" lon="103.71909127967885">
        <ele>27.5389</ele>
        <time>2026-07-24T07:25:33Z</time>
      </trkpt>
      <trkpt lat="1.4058175678816436" lon="103.71915443671337">
        <ele>27.2572</ele>
        <time>2026-07-24T07:25:34Z</time>
      </trkpt>
      <trkpt lat="1.4058004475885666" lon="103.71921681543034">
        <ele>26.9009</ele>
        <time>2026-07-24T07:25:35Z</time>
      </trkpt>
      <trkpt lat="1.4057840570424891" lon="103.71927529872995">
        <ele>26.5247</ele>
        <time>2026-07-24T07:25:36Z</time>
      </trkpt>
      <trkpt lat="1.4057692714804781" lon="103.71932615292965">
        <ele>26.1993</ele>
        <time>2026-07-24T07:25:37Z</time>
      </trkpt>
      <trkpt lat="1.4057574966705644" lon="103.71936640036189">
        <ele>25.8832</ele>
        <time>2026-07-24T07:25:38Z</time>
      </trkpt>
      <trkpt lat="1.4057483518484981" lon="103.71939630863773">
        <ele>25.3668</ele>
        <time>2026-07-24T07:25:46Z</time>
      </trkpt>
      <trkpt lat="1.4057413033003039" lon="103.71941836105674">
        <ele>24.9227</ele>
        <time>2026-07-24T07:25:47Z</time>
      </trkpt>
      <trkpt lat="1.4057352642982317" lon="103.71943591409817">
        <ele>24.5219</ele>
        <time>2026-07-24T07:25:48Z</time>
      </trkpt>
      <trkpt lat="1.4057298685359434" lon="103.71945127927255">
        <ele>24.1778</ele>
        <time>2026-07-24T07:25:49Z</time>
      </trkpt>
      <trkpt lat="1.4057247383198326" lon="103.71946633316074">
        <ele>23.8199</ele>
        <time>2026-07-24T07:25:50Z</time>
      </trkpt>
      <trkpt lat="1.4057193685524416" lon="103.71948264756338">
        <ele>23.5284</ele>
        <time>2026-07-24T07:25:51Z</time>
      </trkpt>
      <trkpt lat="1.4057133233803152" lon="103.71950160473106">
        <ele>23.2769</ele>
        <time>2026-07-24T07:25:52Z</time>
      </trkpt>
      <trkpt lat="1.4057061475789028" lon="103.71952422697495">
        <ele>23.0445</ele>
        <time>2026-07-24T07:25:53Z</time>
      </trkpt>
      <trkpt lat="1.4056977928422238" lon="103.71955127411844">
        <ele>22.77</ele>
        <time>2026-07-24T07:25:54Z</time>
      </trkpt>
      <trkpt lat="1.4056874850906036" lon="103.7195825854424">
        <ele>22.5281</ele>
        <time>2026-07-24T07:25:55Z</time>
      </trkpt>
      <trkpt lat="1.4056761818868186" lon="103.71961787539745">
        <ele>22.2611</ele>
        <time>2026-07-24T07:25:56Z</time>
      </trkpt>
      <trkpt lat="1.4056635168167697" lon="103.71965667671945">
        <ele>22.0612</ele>
        <time>2026-07-24T07:25:57Z</time>
      </trkpt>
      <trkpt lat="1.4056498740989081" lon="103.71969861298784">
        <ele>21.8553</ele>
        <time>2026-07-24T07:25:58Z</time>
      </trkpt>
      <trkpt lat="1.4056351143183521" lon="103.71974301420668">
        <ele>21.6638</ele>
        <time>2026-07-24T07:25:59Z</time>
      </trkpt>
      <trkpt lat="1.4056199129028912" lon="103.71978945204499">
        <ele>21.4763</ele>
        <time>2026-07-24T07:26:00Z</time>
      </trkpt>
      <trkpt lat="1.4056041019801417" lon="103.71983681747973">
        <ele>21.2947</ele>
        <time>2026-07-24T07:26:01Z</time>
      </trkpt>
      <trkpt lat="1.4055876032756276" lon="103.71988452407372">
        <ele>21.148</ele>
        <time>2026-07-24T07:26:02Z</time>
      </trkpt>
      <trkpt lat="1.4055714589501354" lon="103.71993306215231">
        <ele>21.0444</ele>
        <time>2026-07-24T07:26:03Z</time>
      </trkpt>
      <trkpt lat="1.4055553248235002" lon="103.71998229814396">
        <ele>20.932</ele>
        <time>2026-07-24T07:26:04Z</time>
      </trkpt>
      <trkpt lat="1.4055392116103631" lon="103.7200312487317">
        <ele>20.8866</ele>
        <time>2026-07-24T07:26:05Z</time>
      </trkpt>
      <trkpt lat="1.4055218236317979" lon="103.72008048281377">
        <ele>20.8093</ele>
        <time>2026-07-24T07:26:06Z</time>
      </trkpt>
      <trkpt lat="1.4055031274607452" lon="103.72013214715504">
        <ele>20.5931</ele>
        <time>2026-07-24T07:26:07Z</time>
      </trkpt>
      <trkpt lat="1.405482797483244" lon="103.72018547072305">
        <ele>20.3505</ele>
        <time>2026-07-24T07:26:08Z</time>
      </trkpt>
      <trkpt lat="1.4054613954796664" lon="103.7202394284601">
        <ele>20.1422</ele>
        <time>2026-07-24T07:26:09Z</time>
      </trkpt>
      <trkpt lat="1.4054397006724524" lon="103.72029398146302">
        <ele>20.0114</ele>
        <time>2026-07-24T07:26:10Z</time>
      </trkpt>
      <trkpt lat="1.4054168052574891" lon="103.72034953980641">
        <ele>19.7994</ele>
        <time>2026-07-24T07:26:11Z</time>
      </trkpt>
      <trkpt lat="1.4053916958363077" lon="103.72040643652008">
        <ele>19.3849</ele>
        <time>2026-07-24T07:26:12Z</time>
      </trkpt>
      <trkpt lat="1.4053650348299283" lon="103.7204601935495">
        <ele>19.1697</ele>
        <time>2026-07-24T07:26:13Z</time>
      </trkpt>
      <trkpt lat="1.4053331302090473" lon="103.72051258571145">
        <ele>19.0053</ele>
        <time>2026-07-24T07:26:14Z</time>
      </trkpt>
      <trkpt lat="1.4052953381702638" lon="103.72056145333656">
        <ele>18.9212</ele>
        <time>2026-07-24T07:26:15Z</time>
      </trkpt>
      <trkpt lat="1.4052525068667348" lon="103.72060659814287">
        <ele>18.8122</ele>
        <time>2026-07-24T07:26:16Z</time>
      </trkpt>
      <trkpt lat="1.4052063306343874" lon="103.72065003790797">
        <ele>18.8394</ele>
        <time>2026-07-24T07:26:17Z</time>
      </trkpt>
      <trkpt lat="1.405156793891607" lon="103.72069321540422">
        <ele>18.9005</ele>
        <time>2026-07-24T07:26:18Z</time>
      </trkpt>
      <trkpt lat="1.4051045069950865" lon="103.72073669734985">
        <ele>19.0102</ele>
        <time>2026-07-24T07:26:19Z</time>
      </trkpt>
      <trkpt lat="1.4050497158128183" lon="103.72078130499712">
        <ele>19.1056</ele>
        <time>2026-07-24T07:26:20Z</time>
      </trkpt>
      <trkpt lat="1.4049928622593701" lon="103.72082668145677">
        <ele>19.2142</ele>
        <time>2026-07-24T07:26:21Z</time>
      </trkpt>
      <trkpt lat="1.4049348163778737" lon="103.72087215456764">
        <ele>19.2416</ele>
        <time>2026-07-24T07:26:22Z</time>
      </trkpt>
      <trkpt lat="1.404877375606786" lon="103.7209171125707">
        <ele>19.2439</ele>
        <time>2026-07-24T07:26:23Z</time>
      </trkpt>
      <trkpt lat="1.4048213453838654" lon="103.72096142276379">
        <ele>19.2527</ele>
        <time>2026-07-24T07:26:24Z</time>
      </trkpt>
      <trkpt lat="1.4047683810660263" lon="103.72100521159756">
        <ele>19.4012</ele>
        <time>2026-07-24T07:26:25Z</time>
      </trkpt>
      <trkpt lat="1.4047201116239578" lon="103.72104964838601">
        <ele>19.5361</ele>
        <time>2026-07-24T07:26:26Z</time>
      </trkpt>
      <trkpt lat="1.4046771108914968" lon="103.72109655662024">
        <ele>19.7733</ele>
        <time>2026-07-24T07:26:27Z</time>
      </trkpt>
      <trkpt lat="1.4046407245003221" lon="103.72114650893687">
        <ele>19.9003</ele>
        <time>2026-07-24T07:26:28Z</time>
      </trkpt>
      <trkpt lat="1.4046134168432907" lon="103.72120026189832">
        <ele>20.0509</ele>
        <time>2026-07-24T07:26:29Z</time>
      </trkpt>
      <trkpt lat="1.4045940764403289" lon="103.72125670075809">
        <ele>20.0281</ele>
        <time>2026-07-24T07:26:30Z</time>
      </trkpt>
      <trkpt lat="1.4045816088350684" lon="103.72131527669744">
        <ele>20.0254</ele>
        <time>2026-07-24T07:26:31Z</time>
      </trkpt>
      <trkpt lat="1.4045739714648948" lon="103.72137573602036">
        <ele>19.9721</ele>
        <time>2026-07-24T07:26:32Z</time>
      </trkpt>
      <trkpt lat="1.4045707495514799" lon="103.72143818942">
        <ele>19.9295</ele>
        <time>2026-07-24T07:26:33Z</time>
      </trkpt>
      <trkpt lat="1.4045710511624465" lon="103.72150158846311">
        <ele>19.8789</ele>
        <time>2026-07-24T07:26:34Z</time>
      </trkpt>
      <trkpt lat="1.4045742515531185" lon="103.72156482037069">
        <ele>19.8603</ele>
        <time>2026-07-24T07:26:35Z</time>
      </trkpt>
      <trkpt lat="1.4045794046234541" lon="103.72162743208136">
        <ele>19.867</ele>
        <time>2026-07-24T07:26:36Z</time>
      </trkpt>
      <trkpt lat="1.4045859123765114" lon="103.72168948362106">
        <ele>19.9389</ele>
        <time>2026-07-24T07:26:37Z</time>
      </trkpt>
      <trkpt lat="1.4045923876947315" lon="103.72175025228618">
        <ele>20.0423</ele>
        <time>2026-07-24T07:26:38Z</time>
      </trkpt>
      <trkpt lat="1.4045984391878514" lon="103.72180931499355">
        <ele>20.202</ele>
        <time>2026-07-24T07:26:39Z</time>
      </trkpt>
      <trkpt lat="1.4046039561595793" lon="103.72186614135809">
        <ele>20.3874</ele>
        <time>2026-07-24T07:26:40Z</time>
      </trkpt>
      <trkpt lat="1.4046087667659313" lon="103.72192108513694">
        <ele>20.6393</ele>
        <time>2026-07-24T07:26:41Z</time>
      </trkpt>
      <trkpt lat="1.4046135760414031" lon="103.72197544854053">
        <ele>20.8703</ele>
        <time>2026-07-24T07:26:42Z</time>
      </trkpt>
      <trkpt lat="1.4046186790854083" lon="103.72203049147774">
        <ele>21.0958</ele>
        <time>2026-07-24T07:26:43Z</time>
      </trkpt>
      <trkpt lat="1.4046247766049957" lon="103.72208602436278">
        <ele>21.3057</ele>
        <time>2026-07-24T07:26:44Z</time>
      </trkpt>
      <trkpt lat="1.4046321731388431" lon="103.72214179614016">
        <ele>21.5535</ele>
        <time>2026-07-24T07:26:45Z</time>
      </trkpt>
      <trkpt lat="1.4046416046343189" lon="103.72219792451146">
        <ele>21.8195</ele>
        <time>2026-07-24T07:26:46Z</time>
      </trkpt>
      <trkpt lat="1.404653145658878" lon="103.72225447790014">
        <ele>22.0688</ele>
        <time>2026-07-24T07:26:47Z</time>
      </trkpt>
      <trkpt lat="1.4046644903658003" lon="103.72230917859083">
        <ele>22.4979</ele>
        <time>2026-07-24T07:26:48Z</time>
      </trkpt>
      <trkpt lat="1.4046784596108508" lon="103.72236008904741">
        <ele>23.1403</ele>
        <time>2026-07-24T07:26:49Z</time>
      </trkpt>
      <trkpt lat="1.4046909357360164" lon="103.72241061679811">
        <ele>23.5945</ele>
        <time>2026-07-24T07:26:50Z</time>
      </trkpt>
      <trkpt lat="1.404705717370307" lon="103.72245852229541">
        <ele>24.1166</ele>
        <time>2026-07-24T07:26:51Z</time>
      </trkpt>
      <trkpt lat="1.4047203841303728" lon="103.72250599591936">
        <ele>24.5987</ele>
        <time>2026-07-24T07:26:52Z</time>
      </trkpt>
      <trkpt lat="1.4047357818869908" lon="103.72255211075276">
        <ele>24.9032</ele>
        <time>2026-07-24T07:26:53Z</time>
      </trkpt>
      <trkpt lat="1.4047528544260104" lon="103.72259809046299">
        <ele>25.1083</ele>
        <time>2026-07-24T07:26:54Z</time>
      </trkpt>
      <trkpt lat="1.4047707838666474" lon="103.72264362910887">
        <ele>25.2418</ele>
        <time>2026-07-24T07:26:55Z</time>
      </trkpt>
      <trkpt lat="1.4047901573664652" lon="103.72269033967504">
        <ele>25.463</ele>
        <time>2026-07-24T07:26:56Z</time>
      </trkpt>
      <trkpt lat="1.4048115997177839" lon="103.72274082346496">
        <ele>25.5481</ele>
        <time>2026-07-24T07:26:57Z</time>
      </trkpt>
      <trkpt lat="1.4048348338069776" lon="103.72279507193167">
        <ele>25.6138</ele>
        <time>2026-07-24T07:26:58Z</time>
      </trkpt>
      <trkpt lat="1.4048589456724589" lon="103.72285093653443">
        <ele>25.678</ele>
        <time>2026-07-24T07:26:59Z</time>
      </trkpt>
      <trkpt lat="1.4048831817670229" lon="103.72290750740628">
        <ele>25.855</ele>
        <time>2026-07-24T07:27:00Z</time>
      </trkpt>
      <trkpt lat="1.4049090090940055" lon="103.72296325610115">
        <ele>25.991</ele>
        <time>2026-07-24T07:27:01Z</time>
      </trkpt>
      <trkpt lat="1.4049346668576084" lon="103.72301935695951">
        <ele>26.2613</ele>
        <time>2026-07-24T07:27:02Z</time>
      </trkpt>
      <trkpt lat="1.4049604953620756" lon="103.72307665054608">
        <ele>26.4929</ele>
        <time>2026-07-24T07:27:03Z</time>
      </trkpt>
      <trkpt lat="1.4049866894473086" lon="103.72313442256954">
        <ele>26.6098</ele>
        <time>2026-07-24T07:27:04Z</time>
      </trkpt>
      <trkpt lat="1.405012737769145" lon="103.72319212704481">
        <ele>26.6389</ele>
        <time>2026-07-24T07:27:05Z</time>
      </trkpt>
      <trkpt lat="1.4050391979491406" lon="103.72324880751913">
        <ele>26.6225</ele>
        <time>2026-07-24T07:27:06Z</time>
      </trkpt>
      <trkpt lat="1.4050658301058592" lon="103.72330424295845">
        <ele>26.5915</ele>
        <time>2026-07-24T07:27:07Z</time>
      </trkpt>
      <trkpt lat="1.4050912512196068" lon="103.72335929784028">
        <ele>27.0519</ele>
        <time>2026-07-24T07:27:08Z</time>
      </trkpt>
      <trkpt lat="1.4051161041396745" lon="103.72341501039189">
        <ele>27.1637</ele>
        <time>2026-07-24T07:27:09Z</time>
      </trkpt>
      <trkpt lat="1.405139910672077" lon="103.72347104348673">
        <ele>27.2753</ele>
        <time>2026-07-24T07:27:10Z</time>
      </trkpt>
      <trkpt lat="1.4051625942519996" lon="103.72352551903172">
        <ele>27.4066</ele>
        <time>2026-07-24T07:27:11Z</time>
      </trkpt>
      <trkpt lat="1.4051847762281295" lon="103.72357801120636">
        <ele>27.5868</ele>
        <time>2026-07-24T07:27:12Z</time>
      </trkpt>
      <trkpt lat="1.4052065130310312" lon="103.72362963087751">
        <ele>27.6156</ele>
        <time>2026-07-24T07:27:13Z</time>
      </trkpt>
      <trkpt lat="1.4052274125340884" lon="103.72368027866166">
        <ele>27.6453</ele>
        <time>2026-07-24T07:27:14Z</time>
      </trkpt>
      <trkpt lat="1.4052462000452552" lon="103.72373043275974">
        <ele>27.6242</ele>
        <time>2026-07-24T07:27:15Z</time>
      </trkpt>
      <trkpt lat="1.4052642390452821" lon="103.72377896857745">
        <ele>27.6412</ele>
        <time>2026-07-24T07:27:16Z</time>
      </trkpt>
      <trkpt lat="1.4052810358898409" lon="103.72382432379291">
        <ele>27.6406</ele>
        <time>2026-07-24T07:27:17Z</time>
      </trkpt>
      <trkpt lat="1.4052959064598773" lon="103.72386825866765">
        <ele>27.809</ele>
        <time>2026-07-24T07:27:18Z</time>
      </trkpt>
      <trkpt lat="1.4053128279816602" lon="103.72390860760417">
        <ele>27.9116</ele>
        <time>2026-07-24T07:27:19Z</time>
      </trkpt>
      <trkpt lat="1.4053338213551076" lon="103.72394537356102">
        <ele>27.7707</ele>
        <time>2026-07-24T07:27:20Z</time>
      </trkpt>
      <trkpt lat="1.405356425733802" lon="103.72397993314915">
        <ele>27.5863</ele>
        <time>2026-07-24T07:27:21Z</time>
      </trkpt>
      <trkpt lat="1.405385389656358" lon="103.72400933499318">
        <ele>27.5861</ele>
        <time>2026-07-24T07:27:22Z</time>
      </trkpt>
      <trkpt lat="1.4054220349507884" lon="103.72403421953406">
        <ele>27.544</ele>
        <time>2026-07-24T07:27:23Z</time>
      </trkpt>
      <trkpt lat="1.4054628465839876" lon="103.72405661816762">
        <ele>27.7564</ele>
        <time>2026-07-24T07:27:24Z</time>
      </trkpt>
      <trkpt lat="1.4055089806937602" lon="103.72407755785294">
        <ele>28.0181</ele>
        <time>2026-07-24T07:27:25Z</time>
      </trkpt>
      <trkpt lat="1.4055593373460273" lon="103.72409543618852">
        <ele>28.5027</ele>
        <time>2026-07-24T07:27:26Z</time>
      </trkpt>
      <trkpt lat="1.4056140032959969" lon="103.72411067213126">
        <ele>28.9272</ele>
        <time>2026-07-24T07:27:27Z</time>
      </trkpt>
      <trkpt lat="1.4056722846421823" lon="103.72412470925603">
        <ele>29.3751</ele>
        <time>2026-07-24T07:27:28Z</time>
      </trkpt>
      <trkpt lat="1.405733654502229" lon="103.72413713592147">
        <ele>29.9453</ele>
        <time>2026-07-24T07:27:29Z</time>
      </trkpt>
      <trkpt lat="1.405797195292841" lon="103.72414881140531">
        <ele>30.6398</ele>
        <time>2026-07-24T07:27:30Z</time>
      </trkpt>
      <trkpt lat="1.4058622565872594" lon="103.72415985989979">
        <ele>31.3604</ele>
        <time>2026-07-24T07:27:31Z</time>
      </trkpt>
      <trkpt lat="1.4059281659654304" lon="103.72417136701331">
        <ele>31.9871</ele>
        <time>2026-07-24T07:27:32Z</time>
      </trkpt>
      <trkpt lat="1.4059945862872238" lon="103.72418364501355">
        <ele>32.5892</ele>
        <time>2026-07-24T07:27:33Z</time>
      </trkpt>
      <trkpt lat="1.4060614312318769" lon="103.72419665510107">
        <ele>32.9806</ele>
        <time>2026-07-24T07:27:34Z</time>
      </trkpt>
      <trkpt lat="1.4061280324003609" lon="103.7242102532126">
        <ele>33.2841</ele>
        <time>2026-07-24T07:27:35Z</time>
      </trkpt>
      <trkpt lat="1.4061917648220486" lon="103.7242250767752">
        <ele>33.6058</ele>
        <time>2026-07-24T07:27:36Z</time>
      </trkpt>
      <trkpt lat="1.4062521734064055" lon="103.72423909613322">
        <ele>33.8377</ele>
        <time>2026-07-24T07:27:37Z</time>
      </trkpt>
      <trkpt lat="1.4063069734342091" lon="103.72425321299521">
        <ele>34.0857</ele>
        <time>2026-07-24T07:27:38Z</time>
      </trkpt>
      <trkpt lat="1.4063574941028798" lon="103.72426714025043">
        <ele>34.2313</ele>
        <time>2026-07-24T07:27:39Z</time>
      </trkpt>
      <trkpt lat="1.406405321749109" lon="103.72427982754429">
        <ele>34.3109</ele>
        <time>2026-07-24T07:27:40Z</time>
      </trkpt>
      <trkpt lat="1.4064505305783339" lon="103.72429219390131">
        <ele>34.2678</ele>
        <time>2026-07-24T07:27:41Z</time>
      </trkpt>
      <trkpt lat="1.4064930710754595" lon="103.72430491037552">
        <ele>34.3216</ele>
        <time>2026-07-24T07:27:42Z</time>
      </trkpt>
      <trkpt lat="1.4065325428851709" lon="103.72431887301462">
        <ele>34.2325</ele>
        <time>2026-07-24T07:27:43Z</time>
      </trkpt>
      <trkpt lat="1.4065675508431694" lon="103.72433330645899">
        <ele>34.2514</ele>
        <time>2026-07-24T07:27:44Z</time>
      </trkpt>
      <trkpt lat="1.406597010755479" lon="103.72434610189012">
        <ele>34.1251</ele>
        <time>2026-07-24T07:27:45Z</time>
      </trkpt>
      <trkpt lat="1.4066192954066641" lon="103.72435776106798">
        <ele>33.9394</ele>
        <time>2026-07-24T07:27:47Z</time>
      </trkpt>
      <trkpt lat="1.4066337833090243" lon="103.72436307783993">
        <ele>33.7614</ele>
        <time>2026-07-24T07:27:52Z</time>
      </trkpt>
      <trkpt lat="1.4066385666754184" lon="103.72436739417134">
        <ele>33.6163</ele>
        <time>2026-07-24T07:27:54Z</time>
      </trkpt>
      <trkpt lat="1.4066407754096528" lon="103.72437228812139">
        <ele>33.6967</ele>
        <time>2026-07-24T07:28:02Z</time>
      </trkpt>
      <trkpt lat="1.406643978386104" lon="103.72437685956892">
        <ele>33.8824</ele>
        <time>2026-07-24T07:28:03Z</time>
      </trkpt>
      <trkpt lat="1.4066504544761049" lon="103.72438208513204">
        <ele>34.1633</ele>
        <time>2026-07-24T07:28:04Z</time>
      </trkpt>
      <trkpt lat="1.4066622374658457" lon="103.72438874775023">
        <ele>34.5</ele>
        <time>2026-07-24T07:28:05Z</time>
      </trkpt>
      <trkpt lat="1.4066798456023923" lon="103.72439727637871">
        <ele>34.7684</ele>
        <time>2026-07-24T07:28:06Z</time>
      </trkpt>
      <trkpt lat="1.4067030297189933" lon="103.72440811558762">
        <ele>34.9275</ele>
        <time>2026-07-24T07:28:07Z</time>
      </trkpt>
      <trkpt lat="1.40673290953955" lon="103.72442023448514">
        <ele>35.0675</ele>
        <time>2026-07-24T07:28:08Z</time>
      </trkpt>
      <trkpt lat="1.4067683688191832" lon="103.7244345727364">
        <ele>35.1978</ele>
        <time>2026-07-24T07:28:09Z</time>
      </trkpt>
      <trkpt lat="1.4068089665549415" lon="103.72445082947934">
        <ele>35.2824</ele>
        <time>2026-07-24T07:28:10Z</time>
      </trkpt>
      <trkpt lat="1.4068538519081821" lon="103.72446913780998">
        <ele>35.3296</ele>
        <time>2026-07-24T07:28:11Z</time>
      </trkpt>
      <trkpt lat="1.4069023386991169" lon="103.72449002158018">
        <ele>35.3654</ele>
        <time>2026-07-24T07:28:12Z</time>
      </trkpt>
      <trkpt lat="1.4069506212067742" lon="103.72451164052957">
        <ele>35.4786</ele>
        <time>2026-07-24T07:28:13Z</time>
      </trkpt>
      <trkpt lat="1.407003465772249" lon="103.7245352243135">
        <ele>35.4109</ele>
        <time>2026-07-24T07:28:14Z</time>
      </trkpt>
      <trkpt lat="1.4070583973136916" lon="103.72455949992366">
        <ele>35.3239</ele>
        <time>2026-07-24T07:28:15Z</time>
      </trkpt>
      <trkpt lat="1.4071145643348839" lon="103.72458386936435">
        <ele>35.2335</ele>
        <time>2026-07-24T07:28:16Z</time>
      </trkpt>
      <trkpt lat="1.4071723884702461" lon="103.72460872356825">
        <ele>35.1266</ele>
        <time>2026-07-24T07:28:17Z</time>
      </trkpt>
      <trkpt lat="1.4072312024521076" lon="103.72463380626338">
        <ele>34.9837</ele>
        <time>2026-07-24T07:28:18Z</time>
      </trkpt>
      <trkpt lat="1.4072907050594801" lon="103.72465922366263">
        <ele>34.8391</ele>
        <time>2026-07-24T07:28:19Z</time>
      </trkpt>
      <trkpt lat="1.4073507048443423" lon="103.72468479770605">
        <ele>34.6786</ele>
        <time>2026-07-24T07:28:20Z</time>
      </trkpt>
      <trkpt lat="1.4074104479752219" lon="103.724710200548">
        <ele>34.5712</ele>
        <time>2026-07-24T07:28:21Z</time>
      </trkpt>
      <trkpt lat="1.4074698785668849" lon="103.72473584230093">
        <ele>34.5019</ele>
        <time>2026-07-24T07:28:22Z</time>
      </trkpt>
      <trkpt lat="1.4075289929363437" lon="103.72476149470519">
        <ele>34.4166</ele>
        <time>2026-07-24T07:28:23Z</time>
      </trkpt>
      <trkpt lat="1.4075882949321583" lon="103.72478663926115">
        <ele>34.2985</ele>
        <time>2026-07-24T07:28:24Z</time>
      </trkpt>
      <trkpt lat="1.4076479684558945" lon="103.72481064211955">
        <ele>34.1853</ele>
        <time>2026-07-24T07:28:25Z</time>
      </trkpt>
      <trkpt lat="1.4077080576528134" lon="103.7248344252923">
        <ele>34.0834</ele>
        <time>2026-07-24T07:28:26Z</time>
      </trkpt>
      <trkpt lat="1.4077683524744864" lon="103.72485762569545">
        <ele>33.9063</ele>
        <time>2026-07-24T07:28:27Z</time>
      </trkpt>
      <trkpt lat="1.4078286572977172" lon="103.7248815670125">
        <ele>33.7325</ele>
        <time>2026-07-24T07:28:28Z</time>
      </trkpt>
      <trkpt lat="1.4078890101539538" lon="103.72490523215269">
        <ele>33.5328</ele>
        <time>2026-07-24T07:28:29Z</time>
      </trkpt>
      <trkpt lat="1.4079493107532459" lon="103.72492857629939">
        <ele>33.2913</ele>
        <time>2026-07-24T07:28:30Z</time>
      </trkpt>
      <trkpt lat="1.4080092223243421" lon="103.72495049469796">
        <ele>33.1107</ele>
        <time>2026-07-24T07:28:31Z</time>
      </trkpt>
      <trkpt lat="1.4080692317554007" lon="103.72496954831601">
        <ele>32.9002</ele>
        <time>2026-07-24T07:28:32Z</time>
      </trkpt>
      <trkpt lat="1.4081284621236583" lon="103.7249856815213">
        <ele>32.7059</ele>
        <time>2026-07-24T07:28:33Z</time>
      </trkpt>
      <trkpt lat="1.4081869203445101" lon="103.72499746181691">
        <ele>32.4989</ele>
        <time>2026-07-24T07:28:34Z</time>
      </trkpt>
      <trkpt lat="1.4082434720538601" lon="103.72500406188435">
        <ele>32.2912</ele>
        <time>2026-07-24T07:28:35Z</time>
      </trkpt>
      <trkpt lat="1.4082978335860217" lon="103.72500418726578">
        <ele>32.1439</ele>
        <time>2026-07-24T07:28:36Z</time>
      </trkpt>
      <trkpt lat="1.408350700866192" lon="103.72499803225232">
        <ele>32.0611</ele>
        <time>2026-07-24T07:28:37Z</time>
      </trkpt>
      <trkpt lat="1.4083977360545508" lon="103.72498241454879">
        <ele>32.0006</ele>
        <time>2026-07-24T07:28:38Z</time>
      </trkpt>
      <trkpt lat="1.4084361709547284" lon="103.72495151351508">
        <ele>31.9843</ele>
        <time>2026-07-24T07:28:39Z</time>
      </trkpt>
      <trkpt lat="1.4084626523763419" lon="103.72490996737226">
        <ele>32.0158</ele>
        <time>2026-07-24T07:28:40Z</time>
      </trkpt>
      <trkpt lat="1.408476330103547" lon="103.72486097536792">
        <ele>31.8622</ele>
        <time>2026-07-24T07:28:41Z</time>
      </trkpt>
      <trkpt lat="1.4084784330630329" lon="103.72480846218279">
        <ele>31.7601</ele>
        <time>2026-07-24T07:28:42Z</time>
      </trkpt>
      <trkpt lat="1.4084691275760508" lon="103.72475113442501">
        <ele>31.7954</ele>
        <time>2026-07-24T07:28:43Z</time>
      </trkpt>
      <trkpt lat="1.408447796691513" lon="103.72469221054506">
        <ele>31.8296</ele>
        <time>2026-07-24T07:28:44Z</time>
      </trkpt>
      <trkpt lat="1.4084156026597023" lon="103.72463413702168">
        <ele>31.9008</ele>
        <time>2026-07-24T07:28:45Z</time>
      </trkpt>
      <trkpt lat="1.4083737837010013" lon="103.72457914816958">
        <ele>32.1013</ele>
        <time>2026-07-24T07:28:46Z</time>
      </trkpt>
      <trkpt lat="1.4083244053143908" lon="103.72452821055677">
        <ele>32.2297</ele>
        <time>2026-07-24T07:28:47Z</time>
      </trkpt>
      <trkpt lat="1.4082692345034407" lon="103.7244815533837">
        <ele>32.2033</ele>
        <time>2026-07-24T07:28:48Z</time>
      </trkpt>
      <trkpt lat="1.4082105879751319" lon="103.72443759544315">
        <ele>32.1585</ele>
        <time>2026-07-24T07:28:49Z</time>
      </trkpt>
      <trkpt lat="1.4081500502051398" lon="103.72439400175509">
        <ele>32.2031</ele>
        <time>2026-07-24T07:28:50Z</time>
      </trkpt>
      <trkpt lat="1.4080884751874732" lon="103.72435647999016">
        <ele>32.1345</ele>
        <time>2026-07-24T07:28:51Z</time>
      </trkpt>
      <trkpt lat="1.4080276098758004" lon="103.7243223507503">
        <ele>32.1472</ele>
        <time>2026-07-24T07:28:52Z</time>
      </trkpt>
      <trkpt lat="1.407968093327858" lon="103.72429171538941">
        <ele>32.1115</ele>
        <time>2026-07-24T07:28:53Z</time>
      </trkpt>
      <trkpt lat="1.4079102490489406" lon="103.72426390694187">
        <ele>32.067</ele>
        <time>2026-07-24T07:28:54Z</time>
      </trkpt>
      <trkpt lat="1.4078531059024333" lon="103.72423833228797">
        <ele>31.8134</ele>
        <time>2026-07-24T07:28:55Z</time>
      </trkpt>
      <trkpt lat="1.4077979429580447" lon="103.72421508623852">
        <ele>31.5797</ele>
        <time>2026-07-24T07:28:56Z</time>
      </trkpt>
      <trkpt lat="1.4077446521365797" lon="103.72419407819991">
        <ele>31.3804</ele>
        <time>2026-07-24T07:28:57Z</time>
      </trkpt>
      <trkpt lat="1.4077010489466526" lon="103.72417206767294">
        <ele>31.5047</ele>
        <time>2026-07-24T07:28:58Z</time>
      </trkpt>
      <trkpt lat="1.4076663469283071" lon="103.72414839108414">
        <ele>31.6202</ele>
        <time>2026-07-24T07:28:59Z</time>
      </trkpt>
      <trkpt lat="1.4076410314578336" lon="103.72412277621844">
        <ele>31.7657</ele>
        <time>2026-07-24T07:29:00Z</time>
      </trkpt>
      <trkpt lat="1.407627103492173" lon="103.72409514858778">
        <ele>32.0961</ele>
        <time>2026-07-24T07:29:01Z</time>
      </trkpt>
      <trkpt lat="1.4076225475974458" lon="103.72406832128362">
        <ele>32.2643</ele>
        <time>2026-07-24T07:29:02Z</time>
      </trkpt>
      <trkpt lat="1.4076241095344266" lon="103.72403946617644">
        <ele>32.4379</ele>
        <time>2026-07-24T07:29:03Z</time>
      </trkpt>
      <trkpt lat="1.4076308237881954" lon="103.7240127069843">
        <ele>32.9768</ele>
        <time>2026-07-24T07:29:04Z</time>
      </trkpt>
      <trkpt lat="1.4076413134838324" lon="103.72398491516007">
        <ele>33.5651</ele>
        <time>2026-07-24T07:29:05Z</time>
      </trkpt>
      <trkpt lat="1.407656256329844" lon="103.72395661526156">
        <ele>34.3599</ele>
        <time>2026-07-24T07:29:06Z</time>
      </trkpt>
      <trkpt lat="1.4076738005570217" lon="103.7239265097613">
        <ele>35.2864</ele>
        <time>2026-07-24T07:29:07Z</time>
      </trkpt>
      <trkpt lat="1.4076937944365322" lon="103.72389515432664">
        <ele>36.4</ele>
        <time>2026-07-24T07:29:08Z</time>
      </trkpt>
      <trkpt lat="1.4077171460065931" lon="103.7238612972955">
        <ele>37.6011</ele>
        <time>2026-07-24T07:29:09Z</time>
      </trkpt>
      <trkpt lat="1.4077413604969029" lon="103.72382570281314">
        <ele>38.4529</ele>
        <time>2026-07-24T07:29:10Z</time>
      </trkpt>
      <trkpt lat="1.4077657302964228" lon="103.72379001668125">
        <ele>39.1564</ele>
        <time>2026-07-24T07:29:11Z</time>
      </trkpt>
      <trkpt lat="1.4077894786754086" lon="103.72375498266783">
        <ele>39.7386</ele>
        <time>2026-07-24T07:29:12Z</time>
      </trkpt>
      <trkpt lat="1.4078122816374128" lon="103.72371884074917">
        <ele>40.1572</ele>
        <time>2026-07-24T07:29:13Z</time>
      </trkpt>
      <trkpt lat="1.4078324663993889" lon="103.72368324200653">
        <ele>40.4473</ele>
        <time>2026-07-24T07:29:14Z</time>
      </trkpt>
      <trkpt lat="1.4078482582103586" lon="103.72364755306035">
        <ele>40.6441</ele>
        <time>2026-07-24T07:29:15Z</time>
      </trkpt>
      <trkpt lat="1.4078590345078175" lon="103.72361471178579">
        <ele>40.8333</ele>
        <time>2026-07-24T07:29:16Z</time>
      </trkpt>
      <trkpt lat="1.4078650551184608" lon="103.72358839360408">
        <ele>40.8469</ele>
        <time>2026-07-24T07:29:19Z</time>
      </trkpt>
      <trkpt lat="1.4078682235170301" lon="103.72356769087376">
        <ele>40.5086</ele>
        <time>2026-07-24T07:30:19Z</time>
      </trkpt>
      <trkpt lat="1.4078689367870765" lon="103.72355167435759">
        <ele>39.9978</ele>
        <time>2026-07-24T07:30:21Z</time>
      </trkpt>
      <trkpt lat="1.4078658938466599" lon="103.72353738900945">
        <ele>39.5523</ele>
        <time>2026-07-24T07:30:23Z</time>
      </trkpt>
      <trkpt lat="1.4078604449668133" lon="103.72352671308906">
        <ele>39.1634</ele>
        <time>2026-07-24T07:30:24Z</time>
      </trkpt>
      <trkpt lat="1.4078528570776718" lon="103.72351925574465">
        <ele>38.7603</ele>
        <time>2026-07-24T07:30:25Z</time>
      </trkpt>
      <trkpt lat="1.4078436185031313" lon="103.72351449695346">
        <ele>38.4472</ele>
        <time>2026-07-24T07:30:26Z</time>
      </trkpt>
      <trkpt lat="1.4078321114760868" lon="103.72351154194355">
        <ele>38.2462</ele>
        <time>2026-07-24T07:30:28Z</time>
      </trkpt>
      <trkpt lat="1.4078177521675448" lon="103.72350944036143">
        <ele>38.1168</ele>
        <time>2026-07-24T07:30:30Z</time>
      </trkpt>
      <trkpt lat="1.4078032897344717" lon="103.72350894292775">
        <ele>37.9715</ele>
        <time>2026-07-24T07:30:32Z</time>
      </trkpt>
      <trkpt lat="1.4077894916970726" lon="103.72350873336993">
        <ele>37.8069</ele>
        <time>2026-07-24T07:30:44Z</time>
      </trkpt>
      <trkpt lat="1.407774138805818" lon="103.72350842788779">
        <ele>37.8102</ele>
        <time>2026-07-24T07:30:46Z</time>
      </trkpt>
      <trkpt lat="1.4077578348916526" lon="103.7235077343086">
        <ele>37.8169</ele>
        <time>2026-07-24T07:30:47Z</time>
      </trkpt>
      <trkpt lat="1.4077399688163628" lon="103.72350612855722">
        <ele>37.8181</ele>
        <time>2026-07-24T07:30:48Z</time>
      </trkpt>
      <trkpt lat="1.4077202555082988" lon="103.72350344830157">
        <ele>37.788</ele>
        <time>2026-07-24T07:30:49Z</time>
      </trkpt>
      <trkpt lat="1.4076987537543266" lon="103.72349970560514">
        <ele>37.7676</ele>
        <time>2026-07-24T07:30:50Z</time>
      </trkpt>
      <trkpt lat="1.4076759901374156" lon="103.72349511399608">
        <ele>37.7576</ele>
        <time>2026-07-24T07:30:51Z</time>
      </trkpt>
      <trkpt lat="1.4076524004111466" lon="103.72348996555567">
        <ele>37.7561</ele>
        <time>2026-07-24T07:30:52Z</time>
      </trkpt>
      <trkpt lat="1.4076274444951151" lon="103.72348409216497">
        <ele>37.7739</ele>
        <time>2026-07-24T07:30:53Z</time>
      </trkpt>
      <trkpt lat="1.407601014940461" lon="103.72347748139781">
        <ele>37.7697</ele>
        <time>2026-07-24T07:30:54Z</time>
      </trkpt>
      <trkpt lat="1.4075735973726582" lon="103.72347035960928">
        <ele>37.7333</ele>
        <time>2026-07-24T07:30:55Z</time>
      </trkpt>
      <trkpt lat="1.4075452967468194" lon="103.72346274540182">
        <ele>37.6648</ele>
        <time>2026-07-24T07:30:56Z</time>
      </trkpt>
      <trkpt lat="1.4075159541732829" lon="103.72345456709583">
        <ele>37.5945</ele>
        <time>2026-07-24T07:30:57Z</time>
      </trkpt>
      <trkpt lat="1.4074852661789758" lon="103.72344576272032">
        <ele>37.5776</ele>
        <time>2026-07-24T07:30:58Z</time>
      </trkpt>
      <trkpt lat="1.4074528528351065" lon="103.72343618603169">
        <ele>37.5369</ele>
        <time>2026-07-24T07:30:59Z</time>
      </trkpt>
      <trkpt lat="1.407418684974082" lon="103.72342563669162">
        <ele>37.4181</ele>
        <time>2026-07-24T07:31:00Z</time>
      </trkpt>
      <trkpt lat="1.4073828941646931" lon="103.72341403586209">
        <ele>37.302</ele>
        <time>2026-07-24T07:31:01Z</time>
      </trkpt>
      <trkpt lat="1.4073455559573014" lon="103.72340178833647">
        <ele>37.2607</ele>
        <time>2026-07-24T07:31:02Z</time>
      </trkpt>
      <trkpt lat="1.4073063278449434" lon="103.72339050135957">
        <ele>37.2562</ele>
        <time>2026-07-24T07:31:03Z</time>
      </trkpt>
      <trkpt lat="1.4072647324855834" lon="103.72338292286197">
        <ele>37.256</ele>
        <time>2026-07-24T07:31:04Z</time>
      </trkpt>
      <trkpt lat="1.4072215350519823" lon="103.72338184943013">
        <ele>37.2702</ele>
        <time>2026-07-24T07:31:05Z</time>
      </trkpt>
      <trkpt lat="1.4071779502371466" lon="103.72338857648339">
        <ele>37.3786</ele>
        <time>2026-07-24T07:31:06Z</time>
      </trkpt>
      <trkpt lat="1.4071365694562217" lon="103.72340876242909">
        <ele>37.4875</ele>
        <time>2026-07-24T07:31:07Z</time>
      </trkpt>
      <trkpt lat="1.4070953950752239" lon="103.72343411004394">
        <ele>37.5482</ele>
        <time>2026-07-24T07:31:08Z</time>
      </trkpt>
      <trkpt lat="1.4070567050548601" lon="103.72346212925486">
        <ele>37.5818</ele>
        <time>2026-07-24T07:31:09Z</time>
      </trkpt>
      <trkpt lat="1.4070226199295386" lon="103.72349099875001">
        <ele>37.6484</ele>
        <time>2026-07-24T07:31:10Z</time>
      </trkpt>
      <trkpt lat="1.4069938561795163" lon="103.72351904174909">
        <ele>37.6112</ele>
        <time>2026-07-24T07:31:11Z</time>
      </trkpt>
      <trkpt lat="1.4069698563280684" lon="103.72354551049327">
        <ele>37.4832</ele>
        <time>2026-07-24T07:31:12Z</time>
      </trkpt>
      <trkpt lat="1.406948681680797" lon="103.7235718374252">
        <ele>37.2933</ele>
        <time>2026-07-24T07:31:13Z</time>
      </trkpt>
      <trkpt lat="1.4069288489868719" lon="103.72359849281165">
        <ele>36.9352</ele>
        <time>2026-07-24T07:31:14Z</time>
      </trkpt>
      <trkpt lat="1.4069092846379943" lon="103.72362644626379">
        <ele>36.4302</ele>
        <time>2026-07-24T07:31:15Z</time>
      </trkpt>
      <trkpt lat="1.4068896369055652" lon="103.72365591383083">
        <ele>35.81</ele>
        <time>2026-07-24T07:31:16Z</time>
      </trkpt>
      <trkpt lat="1.4068697065746247" lon="103.72368647857743">
        <ele>35.0891</ele>
        <time>2026-07-24T07:31:17Z</time>
      </trkpt>
      <trkpt lat="1.4068493221020593" lon="103.72371757388774">
        <ele>34.3002</ele>
        <time>2026-07-24T07:31:18Z</time>
      </trkpt>
      <trkpt lat="1.4068290126375471" lon="103.72374851606008">
        <ele>33.4943</ele>
        <time>2026-07-24T07:31:19Z</time>
      </trkpt>
      <trkpt lat="1.4068088302472799" lon="103.72377770459642">
        <ele>32.6821</ele>
        <time>2026-07-24T07:31:20Z</time>
      </trkpt>
      <trkpt lat="1.4067885068587667" lon="103.72380427787658">
        <ele>32.0333</ele>
        <time>2026-07-24T07:31:21Z</time>
      </trkpt>
      <trkpt lat="1.406767738412809" lon="103.723827470703">
        <ele>31.6006</ele>
        <time>2026-07-24T07:31:22Z</time>
      </trkpt>
      <trkpt lat="1.4067460249684809" lon="103.72384545497363">
        <ele>31.2436</ele>
        <time>2026-07-24T07:31:23Z</time>
      </trkpt>
      <trkpt lat="1.4067230726818267" lon="103.72385666939641">
        <ele>31.0536</ele>
        <time>2026-07-24T07:31:24Z</time>
      </trkpt>
      <trkpt lat="1.4066993739375655" lon="103.72386046687683">
        <ele>30.8891</ele>
        <time>2026-07-24T07:31:25Z</time>
      </trkpt>
      <trkpt lat="1.4066757625476256" lon="103.72385713374474">
        <ele>30.7442</ele>
        <time>2026-07-24T07:31:26Z</time>
      </trkpt>
      <trkpt lat="1.4066522709998894" lon="103.72384683681189">
        <ele>30.5736</ele>
        <time>2026-07-24T07:31:27Z</time>
      </trkpt>
      <trkpt lat="1.4066292844007926" lon="103.72383001979092">
        <ele>30.4358</ele>
        <time>2026-07-24T07:31:28Z</time>
      </trkpt>
      <trkpt lat="1.4066072066405924" lon="103.72380705288836">
        <ele>30.1945</ele>
        <time>2026-07-24T07:31:29Z</time>
      </trkpt>
      <trkpt lat="1.4065865276604166" lon="103.72377823532706">
        <ele>29.9237</ele>
        <time>2026-07-24T07:31:30Z</time>
      </trkpt>
      <trkpt lat="1.4065686362047618" lon="103.72374384816277">
        <ele>29.7348</ele>
        <time>2026-07-24T07:31:31Z</time>
      </trkpt>
      <trkpt lat="1.4065553438977849" lon="103.72370491765672">
        <ele>29.4888</ele>
        <time>2026-07-24T07:31:32Z</time>
      </trkpt>
      <trkpt lat="1.4065481986794035" lon="103.72366265206728">
        <ele>29.2877</ele>
        <time>2026-07-24T07:31:33Z</time>
      </trkpt>
      <trkpt lat="1.4065477026515771" lon="103.72361717003925">
        <ele>29.0921</ele>
        <time>2026-07-24T07:31:34Z</time>
      </trkpt>
      <trkpt lat="1.4065571094908922" lon="103.72356636947467">
        <ele>28.7908</ele>
        <time>2026-07-24T07:31:35Z</time>
      </trkpt>
      <trkpt lat="1.406570223228627" lon="103.72351204982849">
        <ele>28.4266</ele>
        <time>2026-07-24T07:31:36Z</time>
      </trkpt>
      <trkpt lat="1.4065861172460028" lon="103.72345457954775">
        <ele>27.955</ele>
        <time>2026-07-24T07:31:37Z</time>
      </trkpt>
      <trkpt lat="1.4066041108744578" lon="103.72339554662577">
        <ele>27.3457</ele>
        <time>2026-07-24T07:31:38Z</time>
      </trkpt>
      <trkpt lat="1.4066236276988677" lon="103.72333553723958">
        <ele>26.6663</ele>
        <time>2026-07-24T07:31:39Z</time>
      </trkpt>
      <trkpt lat="1.4066445171898787" lon="103.72327358560536">
        <ele>25.909</ele>
        <time>2026-07-24T07:31:40Z</time>
      </trkpt>
      <trkpt lat="1.4066660476506738" lon="103.72321053761638">
        <ele>25.0733</ele>
        <time>2026-07-24T07:31:41Z</time>
      </trkpt>
      <trkpt lat="1.4066879267329724" lon="103.72314636444328">
        <ele>24.3357</ele>
        <time>2026-07-24T07:31:42Z</time>
      </trkpt>
      <trkpt lat="1.406709431558554" lon="103.72308198668924">
        <ele>23.7182</ele>
        <time>2026-07-24T07:31:43Z</time>
      </trkpt>
      <trkpt lat="1.4067309742230283" lon="103.72301798060387">
        <ele>23.1716</ele>
        <time>2026-07-24T07:31:44Z</time>
      </trkpt>
      <trkpt lat="1.4067519133588728" lon="103.72295418343545">
        <ele>22.7443</ele>
        <time>2026-07-24T07:31:45Z</time>
      </trkpt>
      <trkpt lat="1.4067728267348987" lon="103.72289112875401">
        <ele>22.3612</ele>
        <time>2026-07-24T07:31:46Z</time>
      </trkpt>
      <trkpt lat="1.4067940055139203" lon="103.72282843058579">
        <ele>22.0105</ele>
        <time>2026-07-24T07:31:47Z</time>
      </trkpt>
      <trkpt lat="1.4068155929682034" lon="103.72276663498012">
        <ele>21.6961</ele>
        <time>2026-07-24T07:31:48Z</time>
      </trkpt>
      <trkpt lat="1.4068372438712593" lon="103.72270627508746">
        <ele>21.4426</ele>
        <time>2026-07-24T07:31:49Z</time>
      </trkpt>
      <trkpt lat="1.4068586833416497" lon="103.72264798630523">
        <ele>21.2057</ele>
        <time>2026-07-24T07:31:50Z</time>
      </trkpt>
      <trkpt lat="1.4068795930189626" lon="103.72259164338774">
        <ele>20.948</ele>
        <time>2026-07-24T07:31:51Z</time>
      </trkpt>
      <trkpt lat="1.4069001624845121" lon="103.72253683733423">
        <ele>20.8257</ele>
        <time>2026-07-24T07:31:52Z</time>
      </trkpt>
      <trkpt lat="1.4069205177469168" lon="103.7224833372848">
        <ele>20.7767</ele>
        <time>2026-07-24T07:31:53Z</time>
      </trkpt>
      <trkpt lat="1.4069416445050125" lon="103.7224305786812">
        <ele>20.7873</ele>
        <time>2026-07-24T07:31:54Z</time>
      </trkpt>
      <trkpt lat="1.4069628249554809" lon="103.72237810154112">
        <ele>20.8375</ele>
        <time>2026-07-24T07:31:55Z</time>
      </trkpt>
      <trkpt lat="1.406984529937503" lon="103.72232553923723">
        <ele>20.9673</ele>
        <time>2026-07-24T07:31:56Z</time>
      </trkpt>
      <trkpt lat="1.407006063774076" lon="103.72227265666623">
        <ele>21.1258</ele>
        <time>2026-07-24T07:31:57Z</time>
      </trkpt>
      <trkpt lat="1.407027456201009" lon="103.7222193659647">
        <ele>21.3487</ele>
        <time>2026-07-24T07:31:58Z</time>
      </trkpt>
      <trkpt lat="1.4070486484417122" lon="103.72216574548992">
        <ele>21.5761</ele>
        <time>2026-07-24T07:31:59Z</time>
      </trkpt>
      <trkpt lat="1.4070689886975032" lon="103.72211230603936">
        <ele>21.9084</ele>
        <time>2026-07-24T07:32:00Z</time>
      </trkpt>
      <trkpt lat="1.4070890951694888" lon="103.72206054972743">
        <ele>22.3555</ele>
        <time>2026-07-24T07:32:01Z</time>
      </trkpt>
      <trkpt lat="1.4071082747922889" lon="103.72201133902635">
        <ele>22.8661</ele>
        <time>2026-07-24T07:32:02Z</time>
      </trkpt>
      <trkpt lat="1.4071252461210775" lon="103.72196645222562">
        <ele>23.4937</ele>
        <time>2026-07-24T07:32:03Z</time>
      </trkpt>
      <trkpt lat="1.4071402166837501" lon="103.72192589819572">
        <ele>24.0074</ele>
        <time>2026-07-24T07:32:04Z</time>
      </trkpt>
      <trkpt lat="1.4071536215362277" lon="103.72188920554866">
        <ele>24.5677</ele>
        <time>2026-07-24T07:32:05Z</time>
      </trkpt>
      <trkpt lat="1.4071659959960059" lon="103.72185607540175">
        <ele>25.0875</ele>
        <time>2026-07-24T07:32:06Z</time>
      </trkpt>
      <trkpt lat="1.4071780259266955" lon="103.72182531146117">
        <ele>25.5331</ele>
        <time>2026-07-24T07:32:07Z</time>
      </trkpt>
      <trkpt lat="1.4071903060692266" lon="103.72179612768547">
        <ele>25.9091</ele>
        <time>2026-07-24T07:32:08Z</time>
      </trkpt>
      <trkpt lat="1.4072030117313554" lon="103.72176801560268">
        <ele>26.1641</ele>
        <time>2026-07-24T07:32:09Z</time>
      </trkpt>
      <trkpt lat="1.4072165912306211" lon="103.72174050555543">
        <ele>27.0371</ele>
        <time>2026-07-24T07:32:10Z</time>
      </trkpt>
      <trkpt lat="1.4072294409932646" lon="103.72171267876284">
        <ele>27.8104</ele>
        <time>2026-07-24T07:32:11Z</time>
      </trkpt>
      <trkpt lat="1.4072430830879639" lon="103.72168169282133">
        <ele>28.4826</ele>
        <time>2026-07-24T07:32:12Z</time>
      </trkpt>
      <trkpt lat="1.4072587481899643" lon="103.72164643039056">
        <ele>29.3195</ele>
        <time>2026-07-24T07:32:13Z</time>
      </trkpt>
      <trkpt lat="1.4072771865992775" lon="103.72160870859666">
        <ele>30.0191</ele>
        <time>2026-07-24T07:32:14Z</time>
      </trkpt>
      <trkpt lat="1.4072924936351203" lon="103.72156951670158">
        <ele>30.7074</ele>
        <time>2026-07-24T07:32:15Z</time>
      </trkpt>
      <trkpt lat="1.4073118382472012" lon="103.72152760872532">
        <ele>31.5074</ele>
        <time>2026-07-24T07:32:16Z</time>
      </trkpt>
      <trkpt lat="1.4073299643279988" lon="103.72148334902253">
        <ele>32.1967</ele>
        <time>2026-07-24T07:32:17Z</time>
      </trkpt>
      <trkpt lat="1.407350057785058" lon="103.72144098681159">
        <ele>32.9403</ele>
        <time>2026-07-24T07:32:18Z</time>
      </trkpt>
      <trkpt lat="1.4073682953377045" lon="103.72140216666199">
        <ele>34.1352</ele>
        <time>2026-07-24T07:32:19Z</time>
      </trkpt>
      <trkpt lat="1.4073892918660116" lon="103.72136359555215">
        <ele>35.1499</ele>
        <time>2026-07-24T07:32:20Z</time>
      </trkpt>
      <trkpt lat="1.407414098350078" lon="103.72132557228983">
        <ele>35.9542</ele>
        <time>2026-07-24T07:32:21Z</time>
      </trkpt>
      <trkpt lat="1.4074431791715893" lon="103.72128961800207">
        <ele>36.6603</ele>
        <time>2026-07-24T07:32:22Z</time>
      </trkpt>
      <trkpt lat="1.4074769931921596" lon="103.72125985844805">
        <ele>37.4065</ele>
        <time>2026-07-24T07:32:23Z</time>
      </trkpt>
      <trkpt lat="1.4075166258179195" lon="103.72123764232023">
        <ele>38.1424</ele>
        <time>2026-07-24T07:32:24Z</time>
      </trkpt>
      <trkpt lat="1.4075622458902837" lon="103.72122375301518">
        <ele>38.6253</ele>
        <time>2026-07-24T07:32:25Z</time>
      </trkpt>
      <trkpt lat="1.4076138801681932" lon="103.72121572376042">
        <ele>38.9343</ele>
        <time>2026-07-24T07:32:26Z</time>
      </trkpt>
      <trkpt lat="1.4076720812614429" lon="103.72121077894651">
        <ele>39.1164</ele>
        <time>2026-07-24T07:32:27Z</time>
      </trkpt>
      <trkpt lat="1.4077360340564387" lon="103.72120818831428">
        <ele>39.2503</ele>
        <time>2026-07-24T07:32:28Z</time>
      </trkpt>
      <trkpt lat="1.4078060664953858" lon="103.72120572666043">
        <ele>39.3647</ele>
        <time>2026-07-24T07:32:29Z</time>
      </trkpt>
      <trkpt lat="1.4078807358031291" lon="103.72120276580458">
        <ele>39.3197</ele>
        <time>2026-07-24T07:32:30Z</time>
      </trkpt>
      <trkpt lat="1.407959752346915" lon="103.72119860372834">
        <ele>39.2157</ele>
        <time>2026-07-24T07:32:31Z</time>
      </trkpt>
      <trkpt lat="1.4080412542245537" lon="103.72119271635945">
        <ele>39.0854</ele>
        <time>2026-07-24T07:32:32Z</time>
      </trkpt>
      <trkpt lat="1.4081240067276148" lon="103.72118549848038">
        <ele>38.9498</ele>
        <time>2026-07-24T07:32:33Z</time>
      </trkpt>
      <trkpt lat="1.4082054531801629" lon="103.72117727234547">
        <ele>38.811</ele>
        <time>2026-07-24T07:32:34Z</time>
      </trkpt>
      <trkpt lat="1.4082837841164519" lon="103.72116829197529">
        <ele>38.6385</ele>
        <time>2026-07-24T07:32:35Z</time>
      </trkpt>
      <trkpt lat="1.4083570783566122" lon="103.72115903037148">
        <ele>38.3467</ele>
        <time>2026-07-24T07:32:36Z</time>
      </trkpt>
      <trkpt lat="1.4084239962223382" lon="103.72114942379046">
        <ele>38.175</ele>
        <time>2026-07-24T07:32:37Z</time>
      </trkpt>
      <trkpt lat="1.4084841580977805" lon="103.72114002191283">
        <ele>37.9841</ele>
        <time>2026-07-24T07:32:38Z</time>
      </trkpt>
      <trkpt lat="1.4085371742101487" lon="103.72112927817385">
        <ele>37.7804</ele>
        <time>2026-07-24T07:32:39Z</time>
      </trkpt>
      <trkpt lat="1.408582204791464" lon="103.72111688368943">
        <ele>37.6315</ele>
        <time>2026-07-24T07:32:40Z</time>
      </trkpt>
      <trkpt lat="1.4086185541999676" lon="103.72109952544331">
        <ele>37.3549</ele>
        <time>2026-07-24T07:32:41Z</time>
      </trkpt>
      <trkpt lat="1.4086462046927877" lon="103.72107763589172">
        <ele>37.1372</ele>
        <time>2026-07-24T07:32:42Z</time>
      </trkpt>
      <trkpt lat="1.4086640756970246" lon="103.72105169080758">
        <ele>37.0198</ele>
        <time>2026-07-24T07:32:43Z</time>
      </trkpt>
      <trkpt lat="1.4086723587521106" lon="103.72102323160634">
        <ele>36.8246</ele>
        <time>2026-07-24T07:32:44Z</time>
      </trkpt>
      <trkpt lat="1.4086716657178855" lon="103.72099354547672">
        <ele>36.6198</ele>
        <time>2026-07-24T07:32:45Z</time>
      </trkpt>
      <trkpt lat="1.4086641083273628" lon="103.72096242625396">
        <ele>36.4988</ele>
        <time>2026-07-24T07:32:46Z</time>
      </trkpt>
      <trkpt lat="1.4086501609676274" lon="103.72092816580853">
        <ele>36.4053</ele>
        <time>2026-07-24T07:32:47Z</time>
      </trkpt>
      <trkpt lat="1.4086309488429758" lon="103.72088986172518">
        <ele>36.2811</ele>
        <time>2026-07-24T07:32:48Z</time>
      </trkpt>
      <trkpt lat="1.4086075066003285" lon="103.72084662311221">
        <ele>36.0801</ele>
        <time>2026-07-24T07:32:49Z</time>
      </trkpt>
      <trkpt lat="1.4085814257868075" lon="103.72079947295997">
        <ele>35.9569</ele>
        <time>2026-07-24T07:32:50Z</time>
      </trkpt>
      <trkpt lat="1.4085533310028218" lon="103.72074906474177">
        <ele>35.8556</ele>
        <time>2026-07-24T07:32:51Z</time>
      </trkpt>
      <trkpt lat="1.4085243981892808" lon="103.72069466600718">
        <ele>35.7851</ele>
        <time>2026-07-24T07:32:52Z</time>
      </trkpt>
      <trkpt lat="1.4084957244837344" lon="103.72063708838263">
        <ele>35.7586</ele>
        <time>2026-07-24T07:32:53Z</time>
      </trkpt>
      <trkpt lat="1.4084679241036158" lon="103.7205766905019">
        <ele>35.784</ele>
        <time>2026-07-24T07:32:54Z</time>
      </trkpt>
      <trkpt lat="1.4084413888239333" lon="103.7205158221184">
        <ele>35.7825</ele>
        <time>2026-07-24T07:32:55Z</time>
      </trkpt>
      <trkpt lat="1.4084165693912003" lon="103.72045546531443">
        <ele>35.7312</ele>
        <time>2026-07-24T07:32:56Z</time>
      </trkpt>
      <trkpt lat="1.4083937948009784" lon="103.7203962621643">
        <ele>35.6682</ele>
        <time>2026-07-24T07:32:57Z</time>
      </trkpt>
      <trkpt lat="1.4083728434675973" lon="103.72033895944026">
        <ele>35.5593</ele>
        <time>2026-07-24T07:32:58Z</time>
      </trkpt>
      <trkpt lat="1.4083538335847678" lon="103.72028369992096">
        <ele>35.4598</ele>
        <time>2026-07-24T07:32:59Z</time>
      </trkpt>
      <trkpt lat="1.4083366527501724" lon="103.72023113763085">
        <ele>35.3469</ele>
        <time>2026-07-24T07:33:00Z</time>
      </trkpt>
      <trkpt lat="1.4083206926470386" lon="103.7201817554237">
        <ele>35.3453</ele>
        <time>2026-07-24T07:33:01Z</time>
      </trkpt>
      <trkpt lat="1.4083059796046533" lon="103.72013498653716">
        <ele>35.4342</ele>
        <time>2026-07-24T07:33:02Z</time>
      </trkpt>
      <trkpt lat="1.4082923979386968" lon="103.72008947743086">
        <ele>35.4702</ele>
        <time>2026-07-24T07:33:03Z</time>
      </trkpt>
      <trkpt lat="1.408280234728654" lon="103.72004570473388">
        <ele>35.4757</ele>
        <time>2026-07-24T07:33:04Z</time>
      </trkpt>
      <trkpt lat="1.4082691266171252" lon="103.72000509221519">
        <ele>35.4609</ele>
        <time>2026-07-24T07:33:05Z</time>
      </trkpt>
      <trkpt lat="1.4082594606019128" lon="103.71996675503205">
        <ele>35.3694</ele>
        <time>2026-07-24T07:33:06Z</time>
      </trkpt>
      <trkpt lat="1.4082505533190168" lon="103.71993033805713">
        <ele>35.271</ele>
        <time>2026-07-24T07:33:07Z</time>
      </trkpt>
      <trkpt lat="1.4082418038089164" lon="103.71989642006491">
        <ele>35.4278</ele>
        <time>2026-07-24T07:33:08Z</time>
      </trkpt>
      <trkpt lat="1.4082329936361255" lon="103.71986395056913">
        <ele>35.5799</ele>
        <time>2026-07-24T07:33:09Z</time>
      </trkpt>
      <trkpt lat="1.4082243347416725" lon="103.71983210845923">
        <ele>35.7704</ele>
        <time>2026-07-24T07:33:10Z</time>
      </trkpt>
      <trkpt lat="1.4082160307890528" lon="103.71979932374269">
        <ele>36.0133</ele>
        <time>2026-07-24T07:33:11Z</time>
      </trkpt>
      <trkpt lat="1.408207375289702" lon="103.71976438284759">
        <ele>36.1611</ele>
        <time>2026-07-24T07:33:12Z</time>
      </trkpt>
      <trkpt lat="1.4081984165148129" lon="103.71972601594553">
        <ele>36.2591</ele>
        <time>2026-07-24T07:33:13Z</time>
      </trkpt>
      <trkpt lat="1.4081897259363674" lon="103.71968297354552">
        <ele>36.2363</ele>
        <time>2026-07-24T07:33:14Z</time>
      </trkpt>
      <trkpt lat="1.4081807210460247" lon="103.71963637675938">
        <ele>36.1825</ele>
        <time>2026-07-24T07:33:15Z</time>
      </trkpt>
      <trkpt lat="1.4081706853708031" lon="103.71958790360084">
        <ele>36.1279</ele>
        <time>2026-07-24T07:33:16Z</time>
      </trkpt>
      <trkpt lat="1.4081594193709979" lon="103.71953718632919">
        <ele>36.0547</ele>
        <time>2026-07-24T07:33:17Z</time>
      </trkpt>
      <trkpt lat="1.4081461802616591" lon="103.71948373668383">
        <ele>35.7894</ele>
        <time>2026-07-24T07:33:18Z</time>
      </trkpt>
      <trkpt lat="1.4081306643829699" lon="103.71942840401586">
        <ele>35.4892</ele>
        <time>2026-07-24T07:33:19Z</time>
      </trkpt>
      <trkpt lat="1.408112744889946" lon="103.7193726896321">
        <ele>35.0589</ele>
        <time>2026-07-24T07:33:20Z</time>
      </trkpt>
      <trkpt lat="1.408091681046449" lon="103.7193175439445">
        <ele>34.7431</ele>
        <time>2026-07-24T07:33:21Z</time>
      </trkpt>
      <trkpt lat="1.4080651540764784" lon="103.71926410333899">
        <ele>34.3662</ele>
        <time>2026-07-24T07:33:22Z</time>
      </trkpt>
      <trkpt lat="1.4080329841466137" lon="103.71921203589402">
        <ele>33.9332</ele>
        <time>2026-07-24T07:33:23Z</time>
      </trkpt>
      <trkpt lat="1.4079965946607143" lon="103.71916300299935">
        <ele>33.3966</ele>
        <time>2026-07-24T07:33:24Z</time>
      </trkpt>
      <trkpt lat="1.4079548667871653" lon="103.71911664244654">
        <ele>32.8515</ele>
        <time>2026-07-24T07:33:25Z</time>
      </trkpt>
      <trkpt lat="1.4079088023762683" lon="103.71907229510508">
        <ele>32.3526</ele>
        <time>2026-07-24T07:33:26Z</time>
      </trkpt>
      <trkpt lat="1.4078583438938288" lon="103.71902977446199">
        <ele>31.8808</ele>
        <time>2026-07-24T07:33:27Z</time>
      </trkpt>
      <trkpt lat="1.4078048405315091" lon="103.71898844785728">
        <ele>31.5243</ele>
        <time>2026-07-24T07:33:28Z</time>
      </trkpt>
      <trkpt lat="1.4077487713843311" lon="103.71894806276264">
        <ele>31.2255</ele>
        <time>2026-07-24T07:33:29Z</time>
      </trkpt>
      <trkpt lat="1.4076907775591612" lon="103.7189079153804">
        <ele>31.0373</ele>
        <time>2026-07-24T07:33:30Z</time>
      </trkpt>
      <trkpt lat="1.4076316660633206" lon="103.71886777761519">
        <ele>30.9037</ele>
        <time>2026-07-24T07:33:31Z</time>
      </trkpt>
      <trkpt lat="1.4075716754958565" lon="103.71882846543515">
        <ele>30.8247</ele>
        <time>2026-07-24T07:33:32Z</time>
      </trkpt>
      <trkpt lat="1.4075116873348708" lon="103.71879022762397">
        <ele>30.7218</ele>
        <time>2026-07-24T07:33:33Z</time>
      </trkpt>
      <trkpt lat="1.407452124523094" lon="103.71875286334338">
        <ele>30.657</ele>
        <time>2026-07-24T07:33:34Z</time>
      </trkpt>
      <trkpt lat="1.4073935894181526" lon="103.71871598888951">
        <ele>30.5629</ele>
        <time>2026-07-24T07:33:35Z</time>
      </trkpt>
      <trkpt lat="1.4073358674381753" lon="103.71867923326748">
        <ele>30.4655</ele>
        <time>2026-07-24T07:33:36Z</time>
      </trkpt>
      <trkpt lat="1.4072791720849289" lon="103.71864254296771">
        <ele>30.3886</ele>
        <time>2026-07-24T07:33:37Z</time>
      </trkpt>
      <trkpt lat="1.4072234486453328" lon="103.7186055136399">
        <ele>30.2595</ele>
        <time>2026-07-24T07:33:38Z</time>
      </trkpt>
      <trkpt lat="1.4071686393859271" lon="103.71856791975591">
        <ele>30.1345</ele>
        <time>2026-07-24T07:33:39Z</time>
      </trkpt>
      <trkpt lat="1.407114419402882" lon="103.71853077313274">
        <ele>29.9875</ele>
        <time>2026-07-24T07:33:40Z</time>
      </trkpt>
      <trkpt lat="1.4070606392051968" lon="103.71849311026214">
        <ele>29.8812</ele>
        <time>2026-07-24T07:33:41Z</time>
      </trkpt>
      <trkpt lat="1.4070074905317267" lon="103.71845515656894">
        <ele>29.7654</ele>
        <time>2026-07-24T07:33:42Z</time>
      </trkpt>
      <trkpt lat="1.4069549092331139" lon="103.71841742681688">
        <ele>29.7211</ele>
        <time>2026-07-24T07:33:43Z</time>
      </trkpt>
      <trkpt lat="1.4069031478368217" lon="103.71837977000871">
        <ele>29.696</ele>
        <time>2026-07-24T07:33:44Z</time>
      </trkpt>
      <trkpt lat="1.4068525935688294" lon="103.7183425664325">
        <ele>29.6856</ele>
        <time>2026-07-24T07:33:45Z</time>
      </trkpt>
      <trkpt lat="1.4068032699224031" lon="103.71830594985467">
        <ele>29.6998</ele>
        <time>2026-07-24T07:33:46Z</time>
      </trkpt>
      <trkpt lat="1.4067554486343972" lon="103.71827047516017">
        <ele>29.7248</ele>
        <time>2026-07-24T07:33:47Z</time>
      </trkpt>
      <trkpt lat="1.4067100057530808" lon="103.71823658712097">
        <ele>29.7684</ele>
        <time>2026-07-24T07:33:48Z</time>
      </trkpt>
      <trkpt lat="1.4066681193354542" lon="103.71820429849605">
        <ele>29.8719</ele>
        <time>2026-07-24T07:33:49Z</time>
      </trkpt>
      <trkpt lat="1.406630910215549" lon="103.71817332310759">
        <ele>30.0504</ele>
        <time>2026-07-24T07:33:50Z</time>
      </trkpt>
      <trkpt lat="1.4066005181313912" lon="103.71814276542223">
        <ele>30.2847</ele>
        <time>2026-07-24T07:33:51Z</time>
      </trkpt>
      <trkpt lat="1.4065779183903935" lon="103.71811148969881">
        <ele>30.4838</ele>
        <time>2026-07-24T07:33:52Z</time>
      </trkpt>
      <trkpt lat="1.4065664164095206" lon="103.71807998180732">
        <ele>30.7288</ele>
        <time>2026-07-24T07:33:53Z</time>
      </trkpt>
      <trkpt lat="1.4065660906984212" lon="103.71804507417411">
        <ele>31.0746</ele>
        <time>2026-07-24T07:33:54Z</time>
      </trkpt>
      <trkpt lat="1.4065757409392949" lon="103.71801039567507">
        <ele>31.7231</ele>
        <time>2026-07-24T07:33:55Z</time>
      </trkpt>
      <trkpt lat="1.4065936878003042" lon="103.7179739670508">
        <ele>32.21</ele>
        <time>2026-07-24T07:33:56Z</time>
      </trkpt>
      <trkpt lat="1.406618416964146" lon="103.71793427056791">
        <ele>32.6734</ele>
        <time>2026-07-24T07:33:57Z</time>
      </trkpt>
      <trkpt lat="1.4066460913432137" lon="103.71789348646872">
        <ele>33.2091</ele>
        <time>2026-07-24T07:33:58Z</time>
      </trkpt>
      <trkpt lat="1.4066769481161296" lon="103.71784806282069">
        <ele>33.7706</ele>
        <time>2026-07-24T07:33:59Z</time>
      </trkpt>
      <trkpt lat="1.4067078782145557" lon="103.71779886222663">
        <ele>34.2402</ele>
        <time>2026-07-24T07:34:00Z</time>
      </trkpt>
      <trkpt lat="1.4067393903911065" lon="103.7177448716956">
        <ele>34.434</ele>
        <time>2026-07-24T07:34:01Z</time>
      </trkpt>
      <trkpt lat="1.406769450142445" lon="103.7176870951173">
        <ele>34.7086</ele>
        <time>2026-07-24T07:34:02Z</time>
      </trkpt>
      <trkpt lat="1.4067977275470049" lon="103.71762658075338">
        <ele>34.9591</ele>
        <time>2026-07-24T07:34:03Z</time>
      </trkpt>
      <trkpt lat="1.4068235716637869" lon="103.71756330833635">
        <ele>35.1393</ele>
        <time>2026-07-24T07:34:04Z</time>
      </trkpt>
      <trkpt lat="1.4068468027903542" lon="103.71749790221634">
        <ele>35.1408</ele>
        <time>2026-07-24T07:34:05Z</time>
      </trkpt>
      <trkpt lat="1.4068672114745786" lon="103.71743227073495">
        <ele>35.0313</ele>
        <time>2026-07-24T07:34:06Z</time>
      </trkpt>
      <trkpt lat="1.406884283609352" lon="103.71736681770031">
        <ele>34.7998</ele>
        <time>2026-07-24T07:34:07Z</time>
      </trkpt>
      <trkpt lat="1.406897200446948" lon="103.71730285247715">
        <ele>34.6373</ele>
        <time>2026-07-24T07:34:08Z</time>
      </trkpt>
      <trkpt lat="1.4069058608870448" lon="103.71723888323271">
        <ele>34.3656</ele>
        <time>2026-07-24T07:34:09Z</time>
      </trkpt>
      <trkpt lat="1.4069106408808856" lon="103.7171767357448">
        <ele>34.135</ele>
        <time>2026-07-24T07:34:10Z</time>
      </trkpt>
      <trkpt lat="1.4069120920930422" lon="103.71711557704825">
        <ele>33.7804</ele>
        <time>2026-07-24T07:34:11Z</time>
      </trkpt>
      <trkpt lat="1.4069118979122046" lon="103.71705583087687">
        <ele>33.5217</ele>
        <time>2026-07-24T07:34:12Z</time>
      </trkpt>
      <trkpt lat="1.4069095009083801" lon="103.71699854330815">
        <ele>33.1942</ele>
        <time>2026-07-24T07:34:13Z</time>
      </trkpt>
      <trkpt lat="1.4069057877207372" lon="103.71694491097587">
        <ele>32.7135</ele>
        <time>2026-07-24T07:34:14Z</time>
      </trkpt>
      <trkpt lat="1.4069052463325207" lon="103.71689177583134">
        <ele>32.1227</ele>
        <time>2026-07-24T07:34:15Z</time>
      </trkpt>
      <trkpt lat="1.4069071199934244" lon="103.71683714280928">
        <ele>31.7109</ele>
        <time>2026-07-24T07:34:16Z</time>
      </trkpt>
      <trkpt lat="1.4069171109958951" lon="103.71678087232696">
        <ele>31.301</ele>
        <time>2026-07-24T07:34:17Z</time>
      </trkpt>
      <trkpt lat="1.406929704400069" lon="103.71672661574632">
        <ele>31.008</ele>
        <time>2026-07-24T07:34:18Z</time>
      </trkpt>
      <trkpt lat="1.4069454252186964" lon="103.71667230696295">
        <ele>30.673</ele>
        <time>2026-07-24T07:34:19Z</time>
      </trkpt>
      <trkpt lat="1.4069617581615763" lon="103.71661366821829">
        <ele>30.4046</ele>
        <time>2026-07-24T07:34:20Z</time>
      </trkpt>
      <trkpt lat="1.406978529145904" lon="103.71655557426078">
        <ele>30.1322</ele>
        <time>2026-07-24T07:34:21Z</time>
      </trkpt>
      <trkpt lat="1.4069978438714346" lon="103.71649831461951">
        <ele>29.7739</ele>
        <time>2026-07-24T07:34:22Z</time>
      </trkpt>
      <trkpt lat="1.4070187053879213" lon="103.71644345950844">
        <ele>29.1225</ele>
        <time>2026-07-24T07:34:23Z</time>
      </trkpt>
      <trkpt lat="1.4070421908800872" lon="103.71638929589044">
        <ele>28.3018</ele>
        <time>2026-07-24T07:34:24Z</time>
      </trkpt>
      <trkpt lat="1.4070665450627158" lon="103.71633677725683">
        <ele>27.5446</ele>
        <time>2026-07-24T07:34:25Z</time>
      </trkpt>
      <trkpt lat="1.4070898600301558" lon="103.71628483998984">
        <ele>26.7954</ele>
        <time>2026-07-24T07:34:26Z</time>
      </trkpt>
      <trkpt lat="1.4071143986161239" lon="103.71623212839773">
        <ele>26.2355</ele>
        <time>2026-07-24T07:34:27Z</time>
      </trkpt>
      <trkpt lat="1.4071410337205146" lon="103.71617977314737">
        <ele>25.775</ele>
        <time>2026-07-24T07:34:28Z</time>
      </trkpt>
      <trkpt lat="1.4071712594126142" lon="103.71612883007465">
        <ele>25.559</ele>
        <time>2026-07-24T07:34:29Z</time>
      </trkpt>
      <trkpt lat="1.4072035519640447" lon="103.71607923297756">
        <ele>25.3228</ele>
        <time>2026-07-24T07:34:30Z</time>
      </trkpt>
      <trkpt lat="1.4072387227508234" lon="103.7160303052067">
        <ele>25.3029</ele>
        <time>2026-07-24T07:34:31Z</time>
      </trkpt>
      <trkpt lat="1.4072757892795875" lon="103.71598209760815">
        <ele>25.4058</ele>
        <time>2026-07-24T07:34:32Z</time>
      </trkpt>
      <trkpt lat="1.4073144961468258" lon="103.7159352103006">
        <ele>25.7274</ele>
        <time>2026-07-24T07:34:33Z</time>
      </trkpt>
      <trkpt lat="1.4073535692268888" lon="103.71588991073713">
        <ele>26.1946</ele>
        <time>2026-07-24T07:34:34Z</time>
      </trkpt>
      <trkpt lat="1.4073929588930478" lon="103.71584447199689">
        <ele>26.8831</ele>
        <time>2026-07-24T07:34:35Z</time>
      </trkpt>
      <trkpt lat="1.4074332425227476" lon="103.71579964690297">
        <ele>27.5861</ele>
        <time>2026-07-24T07:34:36Z</time>
      </trkpt>
      <trkpt lat="1.4074741532023789" lon="103.71575537056422">
        <ele>28.3246</ele>
        <time>2026-07-24T07:34:37Z</time>
      </trkpt>
      <trkpt lat="1.4075151199044647" lon="103.71571115944833">
        <ele>29.1362</ele>
        <time>2026-07-24T07:34:38Z</time>
      </trkpt>
      <trkpt lat="1.4075560684673238" lon="103.71566717534461">
        <ele>29.951</ele>
        <time>2026-07-24T07:34:39Z</time>
      </trkpt>
      <trkpt lat="1.4075969800121808" lon="103.71562294557498">
        <ele>30.7869</ele>
        <time>2026-07-24T07:34:40Z</time>
      </trkpt>
      <trkpt lat="1.4076385075516182" lon="103.71557776539744">
        <ele>31.5874</ele>
        <time>2026-07-24T07:34:41Z</time>
      </trkpt>
      <trkpt lat="1.4076804723333918" lon="103.71553140401811">
        <ele>32.4222</ele>
        <time>2026-07-24T07:34:42Z</time>
      </trkpt>
      <trkpt lat="1.4077231907117889" lon="103.71548416013185">
        <ele>33.2196</ele>
        <time>2026-07-24T07:34:43Z</time>
      </trkpt>
      <trkpt lat="1.4077655389292938" lon="103.71543727956775">
        <ele>33.9332</ele>
        <time>2026-07-24T07:34:44Z</time>
      </trkpt>
      <trkpt lat="1.4078065814498257" lon="103.71539263046731">
        <ele>34.5022</ele>
        <time>2026-07-24T07:34:45Z</time>
      </trkpt>
      <trkpt lat="1.407846106282189" lon="103.71535273060209">
        <ele>35.04</ele>
        <time>2026-07-24T07:34:46Z</time>
      </trkpt>
      <trkpt lat="1.4078824529954774" lon="103.7153203168119">
        <ele>35.3966</ele>
        <time>2026-07-24T07:34:47Z</time>
      </trkpt>
      <trkpt lat="1.407914973387292" lon="103.71529374230676">
        <ele>35.6238</ele>
        <time>2026-07-24T07:34:48Z</time>
      </trkpt>
      <trkpt lat="1.4079443407062493" lon="103.71527061884734">
        <ele>35.747</ele>
        <time>2026-07-24T07:34:49Z</time>
      </trkpt>
      <trkpt lat="1.4079719970901068" lon="103.71524761994475">
        <ele>35.8727</ele>
        <time>2026-07-24T07:34:50Z</time>
      </trkpt>
      <trkpt lat="1.4079970323011197" lon="103.71522356342395">
        <ele>35.9742</ele>
        <time>2026-07-24T07:34:51Z</time>
      </trkpt>
      <trkpt lat="1.4080204935403473" lon="103.71519901503491">
        <ele>36.0052</ele>
        <time>2026-07-24T07:34:52Z</time>
      </trkpt>
      <trkpt lat="1.408042604064734" lon="103.71517508916774">
        <ele>35.9871</ele>
        <time>2026-07-24T07:34:53Z</time>
      </trkpt>
      <trkpt lat="1.4080619609155969" lon="103.71515407558113">
        <ele>35.9416</ele>
        <time>2026-07-24T07:34:54Z</time>
      </trkpt>
      <trkpt lat="1.4080762165277037" lon="103.71513849179138">
        <ele>35.9139</ele>
        <time>2026-07-24T07:34:56Z</time>
      </trkpt>
    </trkseg>
  </trk>
</gpx>
